NOMBRE,GARMINCODE,GIROTIPO,TELEFONO,NOMBRE_VIA,CUADRA,URBANIZACI,DIRECCION,DISTRITO,PROVINCIA,DEPARTAMEN,PAIS,LONGITUDE,LATITUDE
Clinica Bellavista,0x3002,hospital,(01) 451-3454,CA GAVIOTAS,2,UB SAN JOSE,GAVIOTAS 207,BELLAVISTA (CALLAO),CALLAO,CALLAO,PERU,-77.096642,-12.057644
Centro Medico Naval,0x3002,hospital,613-7600 / 613-7800,AV VENEZUELA,51,,,BELLAVISTA (CALLAO),CALLAO,CALLAO,PERU,-77.090193,-12.061596
Hospital Daniel Alcides Carrion,0x3002,hospital,614-7474,AV GUARDIA CHALACA,21,UB SEÑOR DE LOS MILAGROS,GUARDIA CHALACA 2176,BELLAVISTA (CALLAO),CALLAO,CALLAO,PERU,-77.122928,-12.062943
Policlinico Essalud del Callao,0x3002,hospital,429-1587 / 429-7744 / 411-8000,AV GUARDIA CHALACA,22,UB SEÑOR DE LOS MILAGROS,,BELLAVISTA (CALLAO),CALLAO,CALLAO,PERU,-77.122256,-12.0634
Hospital Regional Alberto Sabogal,0x3002,hospital,429-0728,AV GUARDIA CHALACA,22,UB SEÑOR DE LOS MILAGROS,,BELLAVISTA (CALLAO),CALLAO,CALLAO,PERU,-77.121315,-12.064124
Municipalidad de Bellavista,0x3003,public office,429-3085 / 429-1697,JR FRANCISCO BOLOGNESI,4,,FRANCISCO BOLOGNESI 498,BELLAVISTA (CALLAO),CALLAO,CALLAO,PERU,-77.129205,-12.062428
Municipalidad del Callao,0x3003,public office,,JR SUPE,5,UV SANTA MARINA SUR,SUPE CDRA. 5 URB. SANTA MARINA SUR,CALLAO,CALLAO,CALLAO,PERU,-77.128534,-12.05404
Municipalidad de Carmen de la Legua,0x3003,public office,452-3897,AV 1 DE MAYO,8,,1 DE MAYO 898,CARMEN DE LA LEGUA REYNOSO,CALLAO,CALLAO,PERU,-77.090145,-12.039683
Ex-Municipalidad de La Perla,0x3003,public office,429 -7341,JR TUPAC AMARU,9,UB LA PERLA,TUPAC AMARU 938,LA PERLA,CALLAO,CALLAO,PERU,-77.124661,-12.068352
Comisaria 04  (Callao),0x3001,policia,469-0205 / 9735-8234,JR BRASIL,6,UB BELLAVISTA LA PERLA,BRASIL 664,LA PERLA,CALLAO,CALLAO,PERU,-77.125914,-12.07025
Policinico Luis Negreiros Vega ESSALUD,0x3002,hospital,574-7024 / 574-2228 / 411-8000,AV TOMAS VALLE,36,UB CIUDAD SATELITE SANTA ROSA,,CALLAO,CALLAO,CALLAO,PERU,-77.097628,-12.01564
Comisaria,0x3001,policia,,AV TOMAS VALLE,34,UB VIPOL,LOS HELIOTROPOS ALT. CDRA. 34 TOMAS VALLE,CALLAO,CALLAO,CALLAO,PERU,-77.096373,-12.014349
Comisaria Ramon Castilla,0x3001,policia,453-7595 / 453-7418 / 453-4801,JR TALARA,,UB MARISCAL RAMON CASTILLA,TALARA CDRA. 2 URB. RAMON CASTILLA,CALLAO,CALLAO,CALLAO,PERU,-77.124024,-12.043946
Comisaria Bellavista,0x3001,policia,429-7224 / 469-1909,AV GUARDIA CHALACA,18,UB SE?OR DE LOS MILAGROS,GUARDIA CHALACA CDRA. 18,BELLAVISTA (CALLAO),CALLAO,CALLAO,PERU,-77.125278,-12.061228
Comisaria Dulanto,0x3001,policia,562-0934,JR TARMA,,UB MANUEL DULANTO,MZ.Q HUANCAYO Y TARMA,CALLAO,CALLAO,CALLAO,PERU,-77.10463,-12.043822
Comisaria Aereopuerto,0x3001,policia,575-4696,AEROPUERTO JORGE CHAVEZ,,,ELMER FAUCETT 3900,CALLAO,CALLAO,CALLAO,PERU,-77.108261,-12.022868
Comisaria La Legua,0x3001,policia,562-1062 / 562-1065 / 562-1097,CA MANUEL VIDAURRE,1,UB LA COLONIAL,MANUEL VIDAURRE CDRA. 1 URB. LA COLONIAL,CALLAO,CALLAO,CALLAO,PERU,-77.097112,-12.052665
Comisaria Carmen de la Legua,0x3001,policia,562-1044,AV 1 DE MAYO,11,,1 DE MAYO 1108,CARMEN DE LA LEGUA REYNOSO,CALLAO,CALLAO,PERU,-77.087165,-12.039151
Ministerio de la Marina,0x3003,public office,614-2900 anexo: 2329,AV INSURGENTES,,UB GERMAN LUIS ASTETE,LA MARINA CDRA. 36,LA PERLA,CALLAO,CALLAO,PERU,-77.104384,-12.069196
Estadio Telmo Carbajo,0x2c08,estadio,,CA ELIAS AGUIRRE,3,,ESQ. ELIAS AGUIRRE CDRA. 3 Y ESPINAR,BELLAVISTA (CALLAO),CALLAO,CALLAO,PERU,-77.13065,-12.063834
Instituto Nacional de Rehabilitacion,0x3003,public office,429-9690 / 429-2377 / 429-0611,JR ANDRES VIGIL,5,UB VIGIL,VIGIL 535,BELLAVISTA (CALLAO),CALLAO,CALLAO,PERU,-77.133384,-12.063357
Region Callao,0x3003,public office,575-5533 / 575-1075 / 484-5100,AV JUAN PABLO II,4,UB CIUDAD DEL PESCADOR ZONA 4,ESQ. VENEZUELA Y GUARDIA CHALACA S/N,BELLAVISTA (CALLAO),CALLAO,CALLAO,PERU,-77.118375,-12.064834
Mall Aventura Plaza Bellavista,0x2e01,mall,626-6000,AV MARISCAL OSCAR RAUL BENAVIDES,,UB EL AGUILA,OSCAR R. BENAVIDES EX. COLONIAL 3866 URB. EL AGUILA,BELLAVISTA (CALLAO),CALLAO,CALLAO,PERU,-77.102302,-12.054615
Estadio Miguel Grau,0x2c08,estadio,429-22 97 / 465-17 82,AV OSCAR R BENAVIDES,21,UB SAN ANTONIO,OSCAR R. BENAVIDES EX. COLONIAL CDRA. 22 S/N,BELLAVISTA (CALLAO),CALLAO,CALLAO,PERU,-77.120981,-12.058512
Universidad Tecnica del Callao,0x2c05,universidad,429-9740 / 429 9748 / 429-9749,AV JUAN PABLO II,3,UB SAN ANTONIO,JUAN PABLO II 306,BELLAVISTA (CALLAO),CALLAO,CALLAO,PERU,-77.116856,-12.061334
Minka,0x2e01,mall,313 7000 / 313-7040,MINKA,33,,ARGENTINA 3093,CALLAO,CALLAO,CALLAO,PERU,-77.110915,-12.04933
Centro Salud Juan Pablo II,0x3002,hospital,,CALLE B,,AH JUAN PABLO II,CALLE B AH. JUAN PABLO II MZ. A ALT. GAMBETA KM. 2.5,CALLAO,CALLAO,CALLAO,PERU,-77.129133,-12.026344
Centro de Salud Ramon Castilla,0x3002,hospital,,JR CUSCO,,UB MARISCAL RAMON CASTILLA,ESQ. CUZCO Y MIROQUESADA PJ. RAMON CASTILLA,CALLAO,CALLAO,CALLAO,PERU,-77.122306,-12.040875
Posta Medica,0x3002,hospital,,CA MISIONERO ABAD,,UB CIUDAD SATELITE SANTA ROSA,MISIONERO ABAD URB.VIPOL SANTA ROSA,CALLAO,CALLAO,CALLAO,PERU,-77.10139,-12.01347
Posta Medica Policia,0x3003,public office,,AV PEDRO BELTRAN,,,PEDRO BELTRAN CDRA. 4 URB. VENTANILLA SATELITE,VENTANILLA,CALLAO,CALLAO,PERU,-77.122427,-11.871429
Comisaria,0x3001,policia,553-4410,AV PEDRO BELTRAN,,UB CIUDAD SATELITE DE VENTANILLA,PEDRO BELTRAN 136 URB. VENTANILLA SATELITE,VENTANILLA,CALLAO,CALLAO,PERU,-77.126249,-11.873012
Ugel Ventanilla,0x2c05,colegio,539-8511 / 488-1013,CA EUCALIPTOS,3,UB CIUDAD SATELITE,LOS EUCALIPTOS CDRA. 3 S/N URB. VENTANILLA SATELITE,VENTANILLA,CALLAO,CALLAO,PERU,-77.125063,-11.874682
Comisaria Seguridad del Estado,0x3001,policia,,PLAZA GUARDIA CHALACA,,,PLAZA GUARDIA CHALACA,CALLAO,CALLAO,CALLAO,PERU,-77.13345,-12.068624
Comisaria,0x3001,policia,,,,AH CASA HUERTA VIRGEN DE LAS MERCEDES,DEL BIERZO A.H. MARIANO IGNACIO PRADO,VENTANILLA,CALLAO,CALLAO,PERU,-77.118522,-11.942424
Comisaria de Ventanilla,0x3001,policia,553-4410,AV JUPITER,,,PEDRO BELTRAN 136,VENTANILLA,CALLAO,CALLAO,PERU,-77.125765,-11.885081
Comisaria Mi Peru,0x3001,policia,532-3061 / 9735-8243,AV CAJAMARCA,,AH MI PERU GRUPO G,MZ. G CENTRO POBLADO MI PERU,MI PERU,CALLAO,CALLAO,PERU,-77.122377,-11.854219
Comisaria Ciudad del Pescador,0x3001,policia,,CA CALLE 6,,UB CIUDAD DEL PESCADOR,ESQ. LOS INSURGENTES Y CALLE 6D,BELLAVISTA (CALLAO),CALLAO,CALLAO,PERU,-77.105225,-12.05876
Paradero Angamos,0x2f08,paradero,,AV JUPITER,,AH LOS ALAMOS,JUPITER CARRETERA A VENTANILLA A.H. ANGAMOS,VENTANILLA,CALLAO,CALLAO,PERU,-77.125968,-11.8922
Paradero Susana Higushi,0x2f08,paradero,,CARR VENTANILLA,,AH SUSANA HIGUCHI DE FUJIMORI,JUPITER CARRETERA A VENTANILLA A.H. SUSANA HIGUSHI,VENTANILLA,CALLAO,CALLAO,PERU,-77.126561,-11.89611
Cementerio,0x6403,cementerio,,CARR VENTANILLA,,,CARRETERA A VENTANILLA,VENTANILLA,CALLAO,CALLAO,PERU,-77.127945,-11.903273
Local UNFV,0x2c05,universidad,720-9720,AV NESTOR GAMBETTA,,ASOC LAS PALMERAS DE OQUENDO,NESTOR GAMBETTA KM. 72,CALLAO,CALLAO,CALLAO,PERU,-77.124681,-11.974118
CE Mi peque?o arquitecto,0x2c05,colegio,994758428,AV JUPITER,,AH ANGAMOS 3 ETAPA,A.H. ANGAMOS SECTOR II MZ. K-7 LT. 27,VENTANILLA,CALLAO,CALLAO,PERU,-77.126342,-11.890939
Deposito de Transito,0x3001,policia,,AV LA PAZ,29,UB LEONCIO PRADO,LA PAZ CDRA. 26,LA PERLA,CALLAO,CALLAO,PERU,-77.11046,-12.077116
Colegio Militar Leoncio Prado,0x2c05,colegio,420-4120 / 457-6067,AV COSTANERA,18,UB SAN FERNANDO,COSTANERA 1541,LA PERLA,CALLAO,CALLAO,PERU,-77.118373,-12.075715
Policlinico PNP Callao,0x3002,hospital,530-4644,AV LA PAZ,11,UB LA PERLA,LA PAZ CDRA. 11,LA PERLA,CALLAO,CALLAO,PERU,-77.124382,-12.072233
Colegio Almirante Miguel Grau Seminario,0x2c05,colegio,,AV LA PAZ,10,UB LA PERLA,LA PAZ 1000,LA PERLA,CALLAO,CALLAO,PERU,-77.125015,-12.072098
CE Parroquial,0x2c05,colegio,,AV LA PAZ,8,UB BELLAVISTA LA PERLA,LA PAZ CDRA. 8,LA PERLA,CALLAO,CALLAO,PERU,-77.126587,-12.071115
Seguridad Ciudadana,0x3001,serenazgo,,AV FAUCETT,,,ELMER FAUCETT CDRA. 6,CARMEN DE LA LEGUA REYNOSO,CALLAO,CALLAO,PERU,-77.098548,-12.045039
Hospital San Jose,0x3002,hospital,319-7830,AV ELMER FAUCETT,,,LAS MAGNOLIAS 475,CARMEN DE LA LEGUA REYNOSO,CALLAO,CALLAO,PERU,-77.098693,-12.042956
Monumento La Virgen,0x2f08,paradero,,AV FAUCETT,,,ESQ. ELMER FAUCCET CDRA. 1 Y MORALES DUAREZ,CARMEN DE LA LEGUA REYNOSO,CALLAO,CALLAO,PERU,-77.098957,-12.040172
Pedagogico Especial Maria Madre,0x2c05,instituto,484-1433 / 575-3660,AV JAPON,5,UB CIUDAD SATELITE SANTA ROSA,BERTELLO CDRA. 5 S/N URB. CIUDAD SATELITE,CALLAO,CALLAO,CALLAO,PERU,-77.104672,-12.012212
Gobierno Regional del Callao,0x3003,public office,575-5533 / 575-1075 / 484-5100,AV ELMER FAUCETT,44,,ELMER FAUCETT 3970,CALLAO,CALLAO,CALLAO,PERU,-77.111388,-12.010328
Hostal Dax,0x2b01,hotel,,AV TOMAS VALLE,32,UB COVI - INRESA,TOMAS VALLE CDRA. 32 MZ. A2 URB. COVI - INRESA,CALLAO,CALLAO,CALLAO,PERU,-77.094354,-12.012663
Hostal Chavin,0x2b01,hotel,,AV TOMAS VALLE,31,UB ALBINO HERRERA II,TOMAS VALLE CDRA. 31 MZ. S1 URB. COVI - INRESA,CALLAO,CALLAO,CALLAO,PERU,-77.092971,-12.012104
Colegio Santa Angela Nerici,0x2c05,colegio,,AV LOPEZ PAZOS,8,,,CARMEN DE LA LEGUA REYNOSO,CALLAO,CALLAO,PERU,-77.090541,-12.038916
Centro de Salud Altamar,0x3002,hospital,,JR 2 DE MAYO,6,UB MAGISTERIAL,,LA PERLA,CALLAO,CALLAO,PERU,-77.117976,-12.069576
Centro de Salud Municipal,0x3002,hospital,,JR SUPE,5,UV SANTA MARINA SUR,,CALLAO,CALLAO,CALLAO,PERU,-77.129063,-12.054327
Centro de Salud,0x3002,hospital,,CA CALLE 3,,UB SAN MARTIN DE PORRES,,CALLAO,CALLAO,CALLAO,PERU,-77.121017,-11.996181
Centro de Salud,0x3002,hospital,,AV REGLA,,AH SANTA ROSA - CERRO LA REGLA,,CALLAO,CALLAO,CALLAO,PERU,-77.116695,-11.988872
Centro de Salud,0x3002,hospital,,PJE AVENIDA B,,AH ANGAMOS 1 ETAPA,,VENTANILLA,CALLAO,CALLAO,PERU,-77.1284,-11.8968
Centro de Salud,0x3002,hospital,,,,AH HEROES DEL CENEPA,,VENTANILLA,CALLAO,CALLAO,PERU,-77.12402,-11.896089
Centro de Salud,0x3002,hospital,,CA MATILDE TELLES,,AH ANGAMOS 2 ETAPA,,VENTANILLA,CALLAO,CALLAO,PERU,-77.127639,-11.892633
Centro de Salud,0x3002,hospital,,AV GONZALES GANOZA,,UB ANTONIA MORENO DE CACERES 1 SECTOR,,VENTANILLA,CALLAO,CALLAO,PERU,-77.124432,-11.886428
Centro de Salud,0x3002,hospital,,CA ESCORPION,,UB NAVAL,,VENTANILLA,CALLAO,CALLAO,PERU,-77.127703,-11.885332
Hospital Ventanilla,0x3002,hospital,,AV PEDRO BELTRAN,,UB CIUDAD SATELITE DE VENTANILLA,,VENTANILLA,CALLAO,CALLAO,PERU,-77.125724,-11.872915
Centro de Salud,0x3002,hospital,,CA CALLE 11,,UB CIUDAD SATELITE,,VENTANILLA,CALLAO,CALLAO,PERU,-77.121087,-11.872785
Centro de Salud Ventanilla Alta,0x3002,hospital,,AV PRINCIPAL,,COOP VENTANILLA ALTA,,VENTANILLA,CALLAO,CALLAO,PERU,-77.110106,-11.872369
Wawahuasi,0x3002,hospital,,AV B PRINCIPAL,,COOP VENTANILLA ALTA,,VENTANILLA,CALLAO,CALLAO,PERU,-77.10888,-11.875183
Centro de Salud,0x3002,hospital,,AV HUAURA,,AH MI PERU GRUPO G,,MI PERU,CALLAO,CALLAO,PERU,-77.122894,-11.855123
Aeropuerto Jorge Chavez,0x2f04,airport,517-3100,AEROPUERTO JORGE CHAVEZ,,,ELMER FAUCETT  S/N,CALLAO,CALLAO,CALLAO,PERU,-77.106735,-12.022236
Bomberos 5 Italia,0x3008,bomberos,429-0318,,,UB SAN ANTONIO,,BELLAVISTA (CALLAO),CALLAO,CALLAO,PERU,-77.11745,-12.059298
Posta Medica,0x3002,hospital,,CA CALLE 15,,UB CIUDAD DEL PESCADOR,,BELLAVISTA (CALLAO),CALLAO,CALLAO,PERU,-77.10477,-12.05826
Policia Nacional Division Aerea,0x3001,policia,,AV FAUCETT,,,,CALLAO,CALLAO,CALLAO,PERU,-77.103684,-12.027481
Posta Medica Poligono IV,0x3002,hospital,,CA CALLE M,,AH BOCANEGRA SECTOR 5,,CALLAO,CALLAO,CALLAO,PERU,-77.100943,-12.025037
Posta  Medica,0x3002,hospital,,,,UB LOS JAZMINES 4 ETAPA,,CALLAO,CALLAO,CALLAO,PERU,-77.106324,-12.006118
CE Ricardo Palma,0x2c05,colegio,,CA SALCEDO,2,UB SAN JOSE,,BELLAVISTA (CALLAO),CALLAO,CALLAO,PERU,-77.09106,-12.0552
Nido Rayitos de Sol,0x2c05,colegio,(01) 732-0124,AV SAN JOSE,2,UB SAN JOSE,SAN JOSE 257,BELLAVISTA (CALLAO),CALLAO,CALLAO,PERU,-77.095379,-12.054538
Colegio Dora Mayer,0x2c05,colegio,,PJE AMERICAS,1,UB SAN JOSE,,BELLAVISTA (CALLAO),CALLAO,CALLAO,PERU,-77.09311,-12.057092
Hogar Jardines Viru,0x3002,albergue,,,,UB JARDINES VIRU,,BELLAVISTA (CALLAO),CALLAO,CALLAO,PERU,-77.099824,-12.059135
Bomberos 60 Alarco Espinosa,0x3008,bomberos,451-4830,,,,,BELLAVISTA (CALLAO),CALLAO,CALLAO,PERU,-77.092833,-12.060025
Bomberos 75 Lorenzo Vega,0x3008,bomberos,553-7735,AV REVOLUCION,,UB CIUDAD SATELITE DE VENTANILLA,,VENTANILLA,CALLAO,CALLAO,PERU,-77.125158,-11.87278
SUNAD - Aduana Aerea,0x3003,public office,512-1737 anexo: 270 / 512-1730,CENTRO AEREO COMERCIAL,,,ELMER FAUCETT   S/N. CAC,CALLAO,CALLAO,CALLAO,PERU,-77.104586,-12.023124
San Juan Masias,0x2c05,colegio,,AV CANADA,,UB SAN JUAN MASIAS,,CALLAO,CALLAO,CALLAO,PERU,-77.117426,-11.997498
CE San Antonio Marianistas,0x2c05,colegio,4651790,AV GUARDIA CHALACA,18,UB SAN ANTONIO,GUARDIA CHALACA 1821,BELLAVISTA (CALLAO),CALLAO,CALLAO,PERU,-77.1246,-12.0608
Colegio General Prado,0x2c05,colegio,,AV JUAN PABLO II,4,UB SAN ANTONIO,,BELLAVISTA (CALLAO),CALLAO,CALLAO,PERU,-77.119112,-12.064547
Cementerio Baquijano,0x6403,cementerio,,AV OSCAR R BENAVIDES,22,,,CALLAO,CALLAO,CALLAO,PERU,-77.118768,-12.057575
Conadis,0x3003,public office,465-7175 /  332-4771,CA ALEJANDRO GRANDA,2,UB SAN ANTONIO,ALEJANDRO GRANDA S/N URB. STELLA MARIS ALT. CDRA. 25 COLONIAL,BELLAVISTA (CALLAO),CALLAO,CALLAO,PERU,-77.11793,-12.059444
CEN 4018 Abraham Valdelomar,0x2c05,colegio,,JR APURIMAC,,UB SANTA ROSA,,CALLAO,CALLAO,CALLAO,PERU,-77.111445,-12.043127
INABIF,0x3003,public office,465-2334,JR IQUITOS,,UB SANTA ROSA 2 ETAPA,IQUITOS S/N 2DA. ETAPA URB. SANTA ROSA ALT. ARGENTINA CDRA. 34,CALLAO,CALLAO,CALLAO,PERU,-77.108851,-12.044395
Estadio Manuel Dulanto,0x2c08,estadio,,,,,,CALLAO,CALLAO,CALLAO,PERU,-77.105583,-12.042949
CEN 3051 Cesar Vallejo,0x2c05,colegio,,,,,,CALLAO,CALLAO,CALLAO,PERU,-77.102631,-12.042946
CE Politecnico del Callao,0x2c05,colegio,,AV FAUCETT,,,,CALLAO,CALLAO,CALLAO,PERU,-77.099179,-12.043575
CEN 5675,0x2c05,colegio,,,,UB JORGE CHAVEZ,,CALLAO,CALLAO,CALLAO,PERU,-77.098308,-12.033888
CE Mixto Jose Maria Arguedas,0x2c05,colegio,,,,UB PREVI,,CALLAO,CALLAO,CALLAO,PERU,-77.091706,-12.020231
CEN Miguel Arcangel,0x2c05,colegio,,AV FEDERICO FERNANDINI,3,,,CALLAO,CALLAO,CALLAO,PERU,-77.129144,-12.056117
CEN San Jose Hermanos Maristas,0x2c05,colegio,,AV FEDERICO FERNANDINI,3,,,CALLAO,CALLAO,CALLAO,PERU,-77.128613,-12.055957
CE Pedro Ruiz Gallo,0x2c05,colegio,,,,UB PEDRO RUIZ GALLO,,CALLAO,CALLAO,CALLAO,PERU,-77.103858,-12.050328
CE Ramiro Priale,0x2c05,colegio,,JR CONDOR,3,UB EL CONDOR,,CALLAO,CALLAO,CALLAO,PERU,-77.091084,-12.014607
Colegio,0x2c05,colegio,,CA CALLE 42A,,UB CIUDAD DEL PESCADOR ZONA 3,,BELLAVISTA (CALLAO),CALLAO,CALLAO,PERU,-77.110215,-12.060582
Colegio Carlos Phillips,0x2c05,colegio,,JR AVELLANOS,,UB PREVI 2 ETAPA,,CALLAO,CALLAO,CALLAO,PERU,-77.090428,-12.017051
IEP Arturo Padilla Espinoza,0x2c05,colegio,,AV CUZCO,,,,MI PERU,CALLAO,CALLAO,PERU,-77.124169,-11.859801
IEP San de Paul,0x2c05,colegio,,AV CUZCO,,AH MI PERU GRUPO E,,MI PERU,CALLAO,CALLAO,PERU,-77.124069,-11.859298
Centro Medico Cayetano Heredia,0x3002,hospital,,AV AYACUCHO,,AH MI PERU GRUPO C,,MI PERU,CALLAO,CALLAO,PERU,-77.125083,-11.858357
San Jose de Cluny (CEI),0x2c05,colegio,,AV AREQUIPA,,AH MI PERU GRUPO E,,MI PERU,CALLAO,CALLAO,PERU,-77.124716,-11.857717
IEP Jesus el Gran Maestro,0x2c05,colegio,,AV TACNA,,AH MI PERU GRUPO C,,MI PERU,CALLAO,CALLAO,PERU,-77.125971,-11.859442
Travesuras (CEI),0x2c05,colegio,,AV TACNA,,AH MI PERU GRUPO C,,MI PERU,CALLAO,CALLAO,PERU,-77.126338,-11.859337
CP Maria Auxiliadora,0x2c05,colegio,,AV TACNA,,AH MI PERU GRUPO K,,MI PERU,CALLAO,CALLAO,PERU,-77.126618,-11.859664
IE Tecnologico Kumamoto,0x2c05,colegio,,AV CUZCO,,AH MI PERU GRUPO K,,MI PERU,CALLAO,CALLAO,PERU,-77.127731,-11.860936
CEI Capullo de Oro,0x2c05,colegio,,AV AREQUIPA,,AH MI PERU GRUPO C,,MI PERU,CALLAO,CALLAO,PERU,-77.126565,-11.857796
Colegio Fe y Alegria 33,0x2c05,colegio,,AV CUZCO,,AH MI PERU GRUPO M,,MI PERU,CALLAO,CALLAO,PERU,-77.121314,-11.856696
Estadio Municipal de Mi Peru,0x2c08,estadio,,AV AREQUIPA,,AH MI PERU GRUPO M,,MI PERU,CALLAO,CALLAO,PERU,-77.119578,-11.85728
PRONEI,0x2c05,colegio,,AV PUNO,,AH MI PERU GRUPO F,,MI PERU,CALLAO,CALLAO,PERU,-77.119751,-11.856464
Servicio de Salud Santa Rosa,0x3002,hospital,,CA RAFHA,,AH SANTA ROSA,,MI PERU,CALLAO,CALLAO,PERU,-77.117876,-11.851788
IE Pio Sarobe,0x2c05,colegio,,CA PIURA,,AH SE?OR DE LUREN,,MI PERU,CALLAO,CALLAO,PERU,-77.119291,-11.85314
Local Comunal Hijos de Mi Peru,0x2c05,colegio,,CA JERUSALEN,,AH HIJOS DE MI PERU,,MI PERU,CALLAO,CALLAO,PERU,-77.119542,-11.85161
IEP Virgen de las Nieves,0x2c05,colegio,,CA BETHEL,,AH VILLA DEL MAR,,MI PERU,CALLAO,CALLAO,PERU,-77.118286,-11.849889
CE 5119 Villa Emilia,0x2c05,colegio,,CA FICUS,,AH VILLA EMILIA,,MI PERU,CALLAO,CALLAO,PERU,-77.121504,-11.850373
Iglesia Adventista del Setimo Dia,0x2c0b,iglesia,,CA MARA?ON,,AH VILLA EMILIA,,MI PERU,CALLAO,CALLAO,PERU,-77.122083,-11.850677
IEP Inicial Virgen de las Nieves,0x2c05,colegio,,CA CEREZOS,,AH VILLA EMILIA,,MI PERU,CALLAO,CALLAO,PERU,-77.125761,-11.850532
IEP Dios es Amor,0x2c05,colegio,,AV TUMBES,,AH VILLA EMILIA,,MI PERU,CALLAO,CALLAO,PERU,-77.124949,-11.851678
Iglesia Evangelica Pentecostes,0x2c0b,iglesia,,AV AYACUCHO,,AH MI PERU GRUPO J,,MI PERU,CALLAO,CALLAO,PERU,-77.124949,-11.852943
PRONOEI Ni?o Jesusito 2,0x3003,public office,,AV TRUJILLO,,AH MI PERU GRUPO J,ALAMEDA J ALT. TRUJILLO,MI PERU,CALLAO,CALLAO,PERU,-77.123516,-11.85344
CP Ciro Alegria,0x2c05,colegio,,,,AH MI PERU GRUPO I,,MI PERU,CALLAO,CALLAO,PERU,-77.126459,-11.852998
IEP Pre Universitario San Juan,0x2c05,colegio,,AV TRUJILLO,,AH MI PERU GRUPO I,,MI PERU,CALLAO,CALLAO,PERU,-77.126481,-11.85364
Parroquia Nuestra Senora de las Mercedes,0x2c0b,iglesia,,AV HUAURA,,AH MI PERU GRUPO G,,MI PERU,CALLAO,CALLAO,PERU,-77.124529,-11.855549
Municipalidad Mi Peru,0x3003,public office,553-6120,AV AYACUCHO,,AH MI PERU GRUPO G,AYACUCHO G-7 LT. 6 C.P. MI PERU,MI PERU,CALLAO,CALLAO,PERU,-77.124861,-11.855025
Iglesia Evangelica Pentecostes,0x2c0b,iglesia,,AV HUAURA,,AH MI PERU GRUPO G,,MI PERU,CALLAO,CALLAO,PERU,-77.124175,-11.85556
Hotel Mi Peru,0x2b01,hotel,,AV AYACUCHO,,AH MI PERU GRUPO A,,MI PERU,CALLAO,CALLAO,PERU,-77.125332,-11.855199
Policlinico Sagrado Corazon,0x3002,hospital,,AV HUAURA,,AH MI PERU GRUPO A,,MI PERU,CALLAO,CALLAO,PERU,-77.125771,-11.855564
Iglesia de los Santos de los Ultimos Dias,0x2c0b,iglesia,,AV HUAURA,,AH MI PERU GRUPO A,,MI PERU,CALLAO,CALLAO,PERU,-77.126435,-11.855599
PRONOEI Virgen del Pilar,0x2c05,colegio,,AV HUAURA,,AH MI PERU GRUPO A,,MI PERU,CALLAO,CALLAO,PERU,-77.127466,-11.855606
Iglesia Cristiana Pentecostes,0x2c0b,iglesia,,AV HAYA DE LA TORRE,,AH MI PERU GRUPO B,,MI PERU,CALLAO,CALLAO,PERU,-77.128193,-11.856061
CEI Fermin Avila,0x2c05,colegio,,,,AH MI PERU GRUPO G,,MI PERU,CALLAO,CALLAO,PERU,-77.12339,-11.85484
Senati Ventanilla,0x2c05,instituto,,AV PEDRO BELTRAN,,,,VENTANILLA,CALLAO,CALLAO,PERU,-77.117414,-11.868638
Paradero Aleluya,0x2f08,paradero,,AV PRINCIPAL,,COOP VENTANILLA ALTA,,VENTANILLA,CALLAO,CALLAO,PERU,-77.108346,-11.874818
Municipalidad de la Perla,0x3003,public office,498-0074 / 498-0135 / 498-0121,CA JOSE PARDO,4,UB CALZADO PERUANO,JUAN JOSE PARDO 598 URB. BENJAMIN DOIG LOSSIO,LA PERLA,CALLAO,CALLAO,PERU,-77.108051,-12.065735
Virgen del Pilar (CEI),0x2c05,colegio,,PJE CACERES,,UB LOS PILARES,,CALLAO,CALLAO,CALLAO,PERU,-77.112336,-12.05473
Hostal Amara,0x2b01,hotel,(01) 457-0266,AV LA MARINA,9,UB MIRAFLORES,LA MARINA 972,LA PERLA,CALLAO,CALLAO,PERU,-77.111731,-12.069767
Hostal Paraiso Inn,0x2b01,hotel,,AV LA MARINA,10,UB LA ESTANCIA,,LA PERLA,CALLAO,CALLAO,PERU,-77.110386,-12.069259
Hostal California,0x2b01,hotel,,AV LA MARINA,10,UB JUAN PABLO II,,LA PERLA,CALLAO,CALLAO,PERU,-77.110508,-12.069219
Hostal,0x2b01,hotel,,AV LA MARINA,10,UB LOS CEREZOS,,LA PERLA,CALLAO,CALLAO,PERU,-77.111058,-12.070054
CEI Concordia Universal,0x2c05,colegio,,AV LA PAZ,14,UB MIRAMAR,,LA PERLA,CALLAO,CALLAO,PERU,-77.121717,-12.07299
IEI Santa Rosa,0x2c05,colegio,,AV SANTA ROSA,7,UB LA PERLA,,LA PERLA,CALLAO,CALLAO,PERU,-77.122864,-12.071445
Colegio Concordia Universal,0x2c05,colegio,(01) 637-7000,AV SANTA ROSA,4,UB LA PERLA,SANTA ROSA 448,LA PERLA,CALLAO,CALLAO,PERU,-77.121475,-12.06914
Hospital,0x3002,hospital,,AV TOMAS VALLE,30,UB EL CONDOR,,CALLAO,CALLAO,CALLAO,PERU,-77.092056,-12.012384
Centro de Instruccion de Aviacion Civil,0x2c05,instituto,,AV FAUCETT,,,,CALLAO,CALLAO,CALLAO,PERU,-77.104964,-12.025568
Los Licenciados de Ventanilla,0x2c05,colegio,,,,AH LOS LICENCIADOS DE VENTANILLA,,VENTANILLA,CALLAO,CALLAO,PERU,-77.131745,-11.878843
Iglesia Adventista del Setimo Dia,0x2c0b,iglesia,,AV PLAYA,,AH LOS LICENCIADOS DE VENTANILLA,,VENTANILLA,CALLAO,CALLAO,PERU,-77.131122,-11.877948
Politecnico 5086 de Ventanilla,0x2c05,instituto,,AV MONITOR HUASCAR,,,,VENTANILLA,CALLAO,CALLAO,PERU,-77.131013,-11.882662
Heroes del Pacifico de Angamos 5096,0x2c05,colegio,,CA CALLE 8,,AH HIJOS DE GRAU,,VENTANILLA,CALLAO,CALLAO,PERU,-77.132599,-11.886132
Instituto Educativo,0x2c05,instituto,,,,AH LOS LICENCIADOS DE VENTANILLA,,VENTANILLA,CALLAO,CALLAO,PERU,-77.12822,-11.87872
Instituto Educativo Frances Divino Maestro,0x2c05,colegio,,CA ESCORPION,,UB NAVAL,,VENTANILLA,CALLAO,CALLAO,PERU,-77.127401,-11.88623
Instituto Cevatec,0x2c05,instituto,,AV UNIVERSITARIA,10,,,CALLAO,CALLAO,CALLAO,PERU,-77.078513,-12.049635
Ovalo Centenario,0x2c06,parque,,OVALO CENTENARIO,,,,CALLAO,CALLAO,CALLAO,PERU,-77.125847,-12.050806
Parque Yahuar Huaca,0x2c06,parque,,AV GUARDIA CHALACA,22,UB SAN ANTONIO,,BELLAVISTA (CALLAO),CALLAO,CALLAO,PERU,-77.121815,-12.063213
Cementerio Israelita,0x6403,cementerio,,AV MARISCAL OSCAR RAUL BENAVIDES,21,,,CALLAO,CALLAO,CALLAO,PERU,-77.120179,-12.057839
Cementerio Britanico,0x6403,cementerio,,AV MARISCAL OSCAR RAUL BENAVIDES,21,,,CALLAO,CALLAO,CALLAO,PERU,-77.12113,-12.057965
Bomberos Garibaldi 7,0x3008,bomberos,498-4370,AV LA MARINA,9,UB BENJAMIN DOIG LOSSIO II,AV. SAENZ PE?A 476,LA PERLA,CALLAO,CALLAO,PERU,-77.113066,-12.068445
Iglesia de Carmen de la Legua,0x2c0b,iglesia,,ENT ENTRADA A COLONIAL,,UB LA COLONIAL,,CALLAO,CALLAO,CALLAO,PERU,-77.097435,-12.053239
Hotel Ramada Costa del Sol *,0x2b01,hotel,711-2000 / 711-2001,AEROPUERTO JORGE CHAVEZ,,,AEROPUERTO INTERNACIONAL JORGE CHAVEZ S/N,CALLAO,CALLAO,CALLAO,PERU,-77.107276,-12.022694
Lima Cargo City,0x6402,edificio,,AV FAUCETT,,,,CALLAO,CALLAO,CALLAO,PERU,-77.103022,-12.028614
Iglesia San Jose de Bellavista,0x2c0b,iglesia,,,,,,BELLAVISTA (CALLAO),CALLAO,CALLAO,PERU,-77.129104,-12.06211
Colegio America,0x2c05,colegio,,,,,,BELLAVISTA (CALLAO),CALLAO,CALLAO,PERU,-77.129233,-12.061317
Sunarp sede Callao,0x3003,public office,453-2344 / 208-3100 / 0801-15000,AV SAENZ PE?A,13,,SAENZ PE?A 1329,CALLAO,CALLAO,CALLAO,PERU,-77.130849,-12.059195
Hospital Chalaco de la Solidaridad,0x3002,hospital,,AV TOMAS VALLE,,UB ZONA INDUSTRIAL,,CALLAO,CALLAO,CALLAO,PERU,-77.102273,-12.019832
Direccion Regional de Educacion,0x3003,public office,,,,UB CONFECCIONES MILITARES,,BELLAVISTA (CALLAO),CALLAO,CALLAO,PERU,-77.113172,-12.060902
Cerro Cucaracha,0x6613,cerro,,,,,,VENTANILLA,CALLAO,CALLAO,PERU,-77.121576,-11.924856
Cerro la Cuchilla,0x6613,cerro,,,,,,VENTANILLA,CALLAO,CALLAO,PERU,-77.102691,-11.928022
Cerro Resbalon,0x6613,cerro,,,,,,VENTANILLA,CALLAO,CALLAO,PERU,-77.101135,-11.914387
Cerro Grande,0x6613,cerro,,,,,,VENTANILLA,CALLAO,CALLAO,PERU,-77.131385,-11.837599
Coliseo Cerrado Miguel Grau,0x2c08,coliseo,,AV OSCAR R BENAVIDES,22,UB SAN ANTONIO,,BELLAVISTA (CALLAO),CALLAO,CALLAO,PERU,-77.118144,-12.057951
Colegio Republica de Venezuela,0x2c05,colegio,,AV ARGENTINA,9,UB SANTA MARIA NORTE,,CALLAO,CALLAO,CALLAO,PERU,-77.130824,-12.051705
Colegio Augusto Cazorla,0x2c05,colegio,,AV REPUBLICA DE PANAMA,7,UB CHACARITAS,,CALLAO,CALLAO,CALLAO,PERU,-77.133892,-12.053093
Ransa,0x2f11,varios,,AV NESTOR GAMBETTA,,,,CALLAO,CALLAO,CALLAO,PERU,-77.129465,-12.022374
Imupesa,0x6405,edificio,,AV NESTOR GAMBETTA,,ASOC ZONA INDUSTRIAL,,CALLAO,CALLAO,CALLAO,PERU,-77.125533,-11.992895
Hospital Chalaco III,0x3002,hospital,,AV PANAMERICANA NORTE,36,ASOC NUEVA JERUSALEN,,VENTANILLA,CALLAO,CALLAO,PERU,-77.119722,-11.82862
Plaza de Armas de Ventanilla,0x640e,parque,,AV PEDRO BELTRAN,,UB CIUDAD SATELITE,,VENTANILLA,CALLAO,CALLAO,PERU,-77.122006,-11.87209
Hostal Iguazu,0x2b01,hotel,,AV REVOLUCION,,,,VENTANILLA,CALLAO,CALLAO,PERU,-77.124917,-11.867657
Hospital Chalaco 2,0x3002,hospital,,AV JUPITER,,,,VENTANILLA,CALLAO,CALLAO,PERU,-77.12591,-11.885498
Open Plaza Canta Callao,0x2e01,mall,,OPEN PLAZA CANTA CALLAO,,COOP 7 DE AGOSTO 1 ETAPA,,CALLAO,CALLAO,CALLAO,PERU,-77.113174,-11.99784
Ovalo Saloom,0x2c06,parque,,AV OVALO JUAN PABLO II,,UB SAN ANTONIO,,BELLAVISTA (CALLAO),CALLAO,CALLAO,PERU,-77.11909,-12.06513
Cerro la Regla,0x6613,cerro,,,,,,CALLAO,CALLAO,CALLAO,PERU,-77.120777,-11.991668
Plaza Fanning (Obelisco),0x2c06,parque,,,,UB CHACARITAS,,CALLAO,CALLAO,CALLAO,PERU,-77.134003,-12.051647
Plaza de Armas de Bellavista,0x2c06,parque,,,,,,BELLAVISTA (CALLAO),CALLAO,CALLAO,PERU,-77.128593,-12.06249
Radio Patrulla del Callao,0x3001,policia,,AV LA PAZ,29,UB LEONCIO PRADO,,LA PERLA,CALLAO,CALLAO,PERU,-77.110115,-12.077259
Colegio Jesus Salvador,0x2c05,colegio,,AV DOMINICOS,11,UB LOS NOGALES,,CALLAO,CALLAO,CALLAO,PERU,-77.101273,-12.002217
Hostal Acuario,0x2b01,hotel,,CA CALLE 27,,ASOC LOS JARDINES,,CALLAO,CALLAO,CALLAO,PERU,-77.099417,-12.006023
Hostal Jeferson,0x2b01,hotel,,AV BOCANEGRA,9,ASOC LOS JARDINES,,CALLAO,CALLAO,CALLAO,PERU,-77.101044,-12.007354
Iglesia Mormona,0x2c0b,iglesia,,AV QUILCA,,UB JORGE CHAVEZ,,CALLAO,CALLAO,CALLAO,PERU,-77.095559,-12.031881
Rico Amanecer,0x2b01,hotel,,AV QUILCA,5,UB JORGE CHAVEZ,,CALLAO,CALLAO,CALLAO,PERU,-77.096999,-12.034787
Parque Olimpico,0x2c06,parque,,AV COMANDANTE PEREZ SALMON,,UB JUAN PABLO II,,CALLAO,CALLAO,CALLAO,PERU,-77.114737,-12.053284
Hostal 21,0x2b01,hotel,,AV JUAN PABLO II,1,UB SAN ANTONIO,,BELLAVISTA (CALLAO),CALLAO,CALLAO,PERU,-77.115519,-12.057344
Colegio Sr de los Milagros,0x2c05,colegio,,AV OSCAR R BENAVIDES,19,,,CALLAO,CALLAO,CALLAO,PERU,-77.124223,-12.058439
Centro Salud el Alamo,0x3002,hospital,,CA COLECTORA,,,,CALLAO,CALLAO,CALLAO,PERU,-77.1073,-12.001862
Hostal,0x2b01,hotel,,AV PACASMAYO,17,,,CALLAO,CALLAO,CALLAO,PERU,-77.104577,-12.004015
Parque Tematico de la Fuerza Aerea,0x2c01,parque tematico,,AV ELMER FAUCETT,,,,CALLAO,CALLAO,CALLAO,PERU,-77.111061,-12.012464
Hostal Princes,0x2b01,hotel,,AV VENEZUELA,12,UB CIUDAD DEL PESCADOR ZONA 3,,BELLAVISTA (CALLAO),CALLAO,CALLAO,PERU,-77.109823,-12.063455
Templo Ivan Cruz,0x2c0b,iglesia,,AV OSCAR R BENAVIDES,29,UB LOS PILARES,,CALLAO,CALLAO,CALLAO,PERU,-77.111098,-12.055871
Hostal,0x2b01,hotel,,CA CALLE 3,,UB ELMER FAUCETT,,CALLAO,CALLAO,CALLAO,PERU,-77.121797,-11.998289
Huaca Respiro,0x6612,huaca,,,,,,VENTANILLA,CALLAO,CALLAO,PERU,-77.0976,-11.94797
Centro del Adulto Mayor Essalud,0x3002,hospital,,JR FRANCISCO BOLOGNESI,2,,,BELLAVISTA (CALLAO),CALLAO,CALLAO,PERU,-77.128335,-12.060042
Hostal Venecia,0x2b01,hotel,,CA NICOMEDES SANTA CRUZ,1,UB CIUDAD DEL PESCADOR,,BELLAVISTA (CALLAO),CALLAO,CALLAO,PERU,-77.111644,-12.057092
Hostal el Conquistador,0x2b01,hotel,,AV OSCAR R BENAVIDES,35,UB CIUDAD DEL PESCADOR,,BELLAVISTA (CALLAO),CALLAO,CALLAO,PERU,-77.106493,-12.055433
Parroquia Corazon de Maria,0x2c0b,iglesia,,PJE BOCA DEL RIO,1,UB GERMAN LUIS ASTETE,,LA PERLA,CALLAO,CALLAO,PERU,-77.104768,-12.068091
Seguridad CIudadana,0x3001,serenazgo,,AV OSCAR R BENAVIDES,43,UB JUAN VELASCO ALVARADO,,CALLAO,CALLAO,CALLAO,PERU,-77.098896,-12.053458
Policlinico Bien,0x3002,hospital,,AV ALMIRANTE MIGUEL GRAU,14,UB VIGIL,,BELLAVISTA (CALLAO),CALLAO,CALLAO,PERU,-77.132324,-12.060948
Instituto Virgen del Carmen,0x2c05,instituto,,AV VENEZUELA,14,,,LA PERLA,CALLAO,CALLAO,PERU,-77.110335,-12.064052
Casa de Cambio,0x2f06,dolares,,MINKA,,,CC MINKA,CALLAO,CALLAO,CALLAO,PERU,-77.109812,-12.048347
Coney Park,0x2c01,juegos,,MINKA,,,CC MINKA,CALLAO,CALLAO,CALLAO,PERU,-77.112741,-12.048105
Paradero Linea 54,0x2f08,paradero,,AV HUASCAR,,,,CALLAO,CALLAO,CALLAO,PERU,-77.114307,-12.046518
Oficina de Normalizacion Previsional - ONP,0x3003,public office,634-2222,CA OMEGA,2,UB PARQUE INTERNACIONAL DE INDUSTRIA Y COMERCIO,OMEGA 252 MZ. I LT. 3,CALLAO,CALLAO,CALLAO,PERU,-77.085814,-12.050651
Vista del Sol,0x2b01,hotel,,AV FAUCETT,17,UB SAN JOSE,,BELLAVISTA (CALLAO),CALLAO,CALLAO,PERU,-77.097167,-12.059958
Condominio el Prado de San Jose,0x6402,edificio,,AV OSCAR R BENAVIDES,51,COND ALAMEDA COLONIAL,,CALLAO,CALLAO,CALLAO,PERU,-77.091477,-12.052072
Hotel Dominicos,0x2b01,hotel,,AV DOMINICOS,6,UB JORGE CHAVEZ 2 ETAPA,,CALLAO,CALLAO,CALLAO,PERU,-77.093886,-12.015652
Parroquia Cristo Liberador,0x2c0b,iglesia,,JR AVELLANAS,,UB PREVI 2 ETAPA,,CALLAO,CALLAO,CALLAO,PERU,-77.091775,-12.018058
Paradero San Pedro,0x2f08,paradero,,AV ACCESO A,,AH SECTOR J BARRIO XX GRUPO RESIDENCIAL 4,,VENTANILLA,CALLAO,CALLAO,PERU,-77.151544,-11.847506
Parroquia Virgen de Fatima,0x2c0b,iglesia,,AV PACHACUTEC DERECHO,,,,VENTANILLA,CALLAO,CALLAO,PERU,-77.148854,-11.842502
Colegio Jose Razuri Esteros,0x2c05,colegio,,,,AH LA LIBERTAD,,VENTANILLA,CALLAO,CALLAO,PERU,-77.130014,-11.846942
Santa Maria,0x2c05,colegio,,AV CONSTRUCTORES,,,,VENTANILLA,CALLAO,CALLAO,PERU,-77.142839,-11.853429
Nuestra Se?ora de Guadalupe,0x2c05,colegio,,AV 200 MILLAS,,AH SECTOR F BARRIO XIII GRUPO RESIDENCIAL 1,,VENTANILLA,CALLAO,CALLAO,PERU,-77.1421,-11.840993
Iglesia Adventista,0x2c0b,iglesia,,AV 200 MILLAS,,"AH SECTOR F BARRIO XIII GRUPO RESIDENCIAL 2,3",,VENTANILLA,CALLAO,CALLAO,PERU,-77.139865,-11.844714
Lima Outlet Center,0x2e01,mall,,AV FAUCETT,34,,AV. ELMER FAUCETT 3443,CALLAO,CALLAO,CALLAO,PERU,-77.108064,-12.018956
El Amanecer Loretano,0x2b00,hostal,,AV NESTOR GAMBETTA,,ASOC LAS PALMERAS DE OQUENDO,,CALLAO,CALLAO,CALLAO,PERU,-77.124739,-11.972635
Seguridad Ciudadana,0x3001,serenazgo,,AV ALFREDO PALACIOS,7,AH VIRGEN DE FATIMA,,CALLAO,CALLAO,CALLAO,PERU,-77.125801,-12.051413
Seguridad Ciudadana,0x3001,serenazgo,,AV ALFREDO PALACIOS,1,,,CALLAO,CALLAO,CALLAO,PERU,-77.121673,-12.057752
Hostal Nueva Zelandia,0x2b01,hotel,,AV PACIFICO,5,UB SANTA LUISA,,LA PERLA,CALLAO,CALLAO,PERU,-77.109967,-12.072689
Municipalidad de Ventanilla,0x3003,public office,,AV PLAYA,,AH EX ZONA COMERCIAL E INDUSTRIAL DE VENTANILLA,,VENTANILLA,CALLAO,CALLAO,PERU,-77.127753,-11.877167
Liceo Naval German Astete,0x2c05,colegio,,CA GRITO DE HUAURA,3,UB BENJAMIN DOIG LOSSIO III,,LA PERLA,CALLAO,CALLAO,PERU,-77.106573,-12.066713
Academia Aduni,0x2c05,instituto,,AV UNIVERSITARIA,10,,,CALLAO,CALLAO,CALLAO,PERU,-77.078035,-12.049062
Colegio Ricardo Palma,0x2c05,colegio,,CA JOSE GALVEZ,2,UB JORGE CHAVEZ 1 ETAPA,,CALLAO,CALLAO,CALLAO,PERU,-77.099532,-12.02032
Colegio Ana Maria Javouhey,0x2c05,colegio,,CA CROMO,,UB JORGE CHAVEZ,,CALLAO,CALLAO,CALLAO,PERU,-77.097243,-12.032552
Colegio Parroquial Santa Cruz,0x2c05,colegio,,CA CALLE 10,,UB JORGE CHAVEZ,,CALLAO,CALLAO,CALLAO,PERU,-77.097368,-12.030733
Goodyear Peru,0x6402,edificio,,,,,,CARMEN DE LA LEGUA REYNOSO,CALLAO,CALLAO,PERU,-77.085307,-12.046108
Cementerio Oquendo,0x6403,cementerio,,AV NESTOR GAMBETTA,,,,CALLAO,CALLAO,CALLAO,PERU,-77.126787,-11.963177
Hostal Cielo Azul,0x2b01,hotel,,AV PERU,47,AH BOCANEGRA SECTOR 4,,CALLAO,CALLAO,CALLAO,PERU,-77.098243,-12.026197
Boulevard Peru,0x640e,parque,,AV PERU,50,UB JORGE CHAVEZ 1 ETAPA,,CALLAO,CALLAO,CALLAO,PERU,-77.099773,-12.022716
Grupo San Marcos,0x2c05,instituto,,AV FAUCETT,4,UB TARAPACA,FAUCETT 435,CALLAO,CALLAO,CALLAO,PERU,-77.098535,-12.048953
Hostal,0x2b01,hotel,,AV QUILCA,5,RES AEROPUERTO,,CALLAO,CALLAO,CALLAO,PERU,-77.096979,-12.035306
Huaca Cerro Culebra,0x2c02,huaca,,,,,,VENTANILLA,CALLAO,CALLAO,PERU,-77.122749,-11.940542
Colegio Vencedores de Pachacamac,0x2c05,,,,,AH NUEVO PACHACUTEC SECTOR D2,,VENTANILLA,CALLAO,CALLAO,PERU,-77.147732,-11.831866
Colegio de educacion especial Hellen Keller,0x2c05,,,,,AH NUEVO PACHACUTEC SECTOR D1,,VENTANILLA,CALLAO,CALLAO,PERU,-77.152116,-11.83193
Colegio 5130 Pachacutec,0x2c05,prolongacion,,PROLONGACION AVENIDA 225,,AH NUEVO PACHACUTEC SECTOR A2,,VENTANILLA,CALLAO,CALLAO,PERU,-77.155807,-11.829589
Colegio 5127 Jose Olaya,0x2c05,,,AV JOSE QUI?ONES,,UB JOSE OLAYA BALANDRA,,VENTANILLA,CALLAO,CALLAO,PERU,-77.123766,-11.838129
CE 5122 Jose Andres Razuri,0x2c05,,,CA CESAR DIAZ,,AH SANTA ROSA,,VENTANILLA,CALLAO,CALLAO,PERU,-77.125584,-11.845932
Complejo deportivo San Joaquin,0x2c08,,452-5055 / 993071528,CA ABEL GALINDEZ,1,UB SAN JOAQUIN,"MIGUEL ZAMORA, 151 - URB. SAN JOAQUIN",BELLAVISTA (CALLAO),CALLAO,CALLAO,PERU,-77.089927,-12.058201
Colegio Fe y Alegria No 29,0x2c05,,,AV PRINCIPAL,,COOP VENTANILLA ALTA,,VENTANILLA,CALLAO,CALLAO,PERU,-77.107065,-11.874792
Colegio 5128,0x2c05,,,,,AH NUEVO PACHACUTEC SECTOR E3,,VENTANILLA,CALLAO,CALLAO,PERU,-77.159354,-11.834931
Colegio Fe y Alegria,0x2c05,,,,,AH LA PAZ 1 ETAPA,,VENTANILLA,CALLAO,CALLAO,PERU,-77.13068,-11.82221
Congregacion Hijas de la Misericordia,0x2c0b,,,,,UB VILLA LOS REYES 1 SECTOR,,VENTANILLA,CALLAO,CALLAO,PERU,-77.123441,-11.825681
Huaca Rosada,0x6415,huaca,,,,,,VENTANILLA,CALLAO,CALLAO,PERU,-77.11687,-11.944046
SGS del Peru,0x6405,,,AV ELMER FAUCETT,35,UB ZONA INDUSTRIAL,,CALLAO,CALLAO,CALLAO,PERU,-77.10753,-12.018079
DHL,0x2f05,,,CA CALLE 1,5,UB ZONA INDUSTRIAL,,CALLAO,CALLAO,CALLAO,PERU,-77.107345,-12.013044
Colegio 5083,0x2c05,,,PASAJE 12,1,COOP ALBINO HERRERA,,CALLAO,CALLAO,CALLAO,PERU,-77.104465,-12.01083
Colegio San Antonio de Mujeres,0x2c05,colegio,,AV SAENZ PENA,13,,,BELLAVISTA (CALLAO),CALLAO,CALLAO,PERU,-77.130571,-12.059428
IE Francisco Izquierdo Rios,0x2c05,,,JR COMANDANTE ESPINAR,2,,,BELLAVISTA (CALLAO),CALLAO,CALLAO,PERU,-77.130381,-12.060633
CEP San Jose de Bellavista,0x2c05,,,CA VICTOR FAJARDO,4,,,BELLAVISTA (CALLAO),CALLAO,CALLAO,PERU,-77.129785,-12.061974
Hospital San Juan de Dios del Callao,0x3002,,,,,UB SE?OR DE LOS MILAGROS,,BELLAVISTA (CALLAO),CALLAO,CALLAO,PERU,-77.124408,-12.064272
Fima Peru,0x6405,,,,,UB ZONA INDUSTRIAL,,CARMEN DE LA LEGUA REYNOSO,CALLAO,CALLAO,PERU,-77.088826,-12.044178
Liceo Naval Teniente Clavero,0x2c05,prolongacion,,AV PROLONGACION MERCURIO,,,,VENTANILLA,CALLAO,CALLAO,PERU,-77.128952,-11.888131
Colegio Bertold Brecht,0x2c05,,562-1246,AV UNIVERSITARIA,10,,AV. OSCAR R. BENAVIDES (EX COLONIAL) 2798,CALLAO,CALLAO,CALLAO,PERU,-77.078365,-12.049448
Compa?ia Nacional de Marmoles S.A.,0x6405,,,AV ARGENTINA,,,AV. ARGENTINA 5982,CALLAO,CALLAO,CALLAO,PERU,-77.085347,-12.047443
Radio Shack,0x2e04,,,,,,,CALLAO,CALLAO,CALLAO,PERU,-77.108396,-12.019053
Cajero BCP,0x2f06,,,,,,,CALLAO,CALLAO,CALLAO,PERU,-77.108514,-12.019117
La Baguette,0x2a05,,,,,,,CALLAO,CALLAO,CALLAO,PERU,-77.108692,-12.019169
Colegio Santisima Trinidad,0x2c05,,,CA ROSAS,3,UB LA SAGRADA FAMILIA,,BELLAVISTA (CALLAO),CALLAO,CALLAO,PERU,-77.101383,-12.062371
Pardos Chicken,0x2a0b,,,AEROPUERTO JORGE CHAVEZ,,,,CALLAO,CALLAO,CALLAO,PERU,-77.108795,-12.022331
Iglesia de Dios,0x2c0b,,,AV ELMER FAUCETT,15,UB SANTA CECILIA,,BELLAVISTA (CALLAO),CALLAO,CALLAO,PERU,-77.096925,-12.062006
Complejo hospitalario Salud y Vida,0x3002,,,AV PACASMAYO,49,UB JORGE CHAVEZ 1 ETAPA,,CALLAO,CALLAO,CALLAO,PERU,-77.097863,-12.018226
Hostal el Dorado,0x2b01,,,AV PACASMAYO,49,UB JORGE CHAVEZ 2 ETAPA,,CALLAO,CALLAO,CALLAO,PERU,-77.097859,-12.017595
Colegio Mi Dulce Carito,0x2c05,colegio,,AV JAPON,12,UB LOS JAZMINES 4 ETAPA,,CALLAO,CALLAO,CALLAO,PERU,-77.109064,-12.003467
Banco BCP Credito,0x2f06,,,CA TROMPETEROS,,UB CIUDAD SATELITE DE VENTANILLA,,VENTANILLA,CALLAO,CALLAO,PERU,-77.126846,-11.871908
Botica Hogar y Salud,0x2e05,,,AV ANDRES AVELINO CACERES,,AH EX ZONA COMERCIAL E INDUSTRIAL DE VENTANILLA,,VENTANILLA,CALLAO,CALLAO,PERU,-77.127084,-11.87488
Huaca Palacio del Inca,0x6612,huaca,,,,,,CALLAO,CALLAO,CALLAO,PERU,-77.118128,-11.968874
Metalpak SA,0x6402,,5776211,AV NESTOR GAMBETTA,58,,GAMBETTA 5821,CALLAO,CALLAO,CALLAO,PERU,-77.126464,-11.966749
Iglesia San Pio X,0x2c0b,,,,,ASOC LAS VI?AS DE OQUENDO,PARQUE PIO X S/N,CALLAO,CALLAO,CALLAO,PERU,-77.120056,-11.973666
Piscina Lunahuana,0x2d0a,,,,,ASOC LA ALBORADA2 ETAPA,,CALLAO,CALLAO,CALLAO,PERU,-77.117158,-11.974987
Interbank,0x2f06,,,OPEN PLAZA CANTA CALLAO,,COOP 7 DE AGOSTO 1 ETAPA,,CALLAO,CALLAO,CALLAO,PERU,-77.112826,-11.998189
Mi Farma,0x2e05,,612-5000,OPEN PLAZA CANTA CALLAO,,COOP 7 DE AGOSTO 1 ETAPA,,CALLAO,CALLAO,CALLAO,PERU,-77.113045,-11.998098
Fadesa,0x6402,,,,,,,CALLAO,CALLAO,CALLAO,PERU,-77.126299,-11.96708
Unimar,0x6405,,,,,,,CALLAO,CALLAO,CALLAO,PERU,-77.126296,-11.994771
Centro de Salud 200 Millas,0x3002,,,CA CALLE A,,UB 200 MILLAS,,CALLAO,CALLAO,CALLAO,PERU,-77.124986,-11.995237
Colegio 5033 Las 200 Millas,0x2c05,,,CA CALLE 4,,UB 200 MILLAS,,CALLAO,CALLAO,CALLAO,PERU,-77.123897,-11.99454
Fundicion Callao FunCal,0x6402,,,AV LOS INSURGENTES,,,,CALLAO,CALLAO,CALLAO,PERU,-77.106377,-12.048935
Corte Superior de Justicia del Callao,0x3004,,,JR ESPA?A,1,UB BENJAMIN DOIG LOSSIO I,,LA PERLA,CALLAO,CALLAO,PERU,-77.11766,-12.067031
Innova School,0x2c05,,,AV MIGUEL GRAU,16,,,BELLAVISTA (CALLAO),CALLAO,CALLAO,PERU,-77.129592,-12.060037
Santa Rosa CE,0x2c05,,,AV REVOLUCION PALOMINO,,COOP ELIAS AGUIRRE,,CALLAO,CALLAO,CALLAO,PERU,-77.116414,-12.056182
CE 4008 Nuestra Se?ora de Fatima,0x2c05,,,JR DIAMANTES,,UB SAN FERNANDO,,CALLAO,CALLAO,CALLAO,PERU,-77.108486,-12.052476
CE Emma Dettmann de Gutierrez,0x2c05,,,,,UB LA COLONIAL,,CALLAO,CALLAO,CALLAO,PERU,-77.094993,-12.050475
Colegio Juan Ingunza Vladivia,0x2c05,,,,,UB VIPOL,,CALLAO,CALLAO,CALLAO,PERU,-77.097371,-12.011589
Escuela de Talentos,0x2c05,,,AV ALEJANDRO BERTELLO BOLLATI,5,UB CIUDAD SATELITE SANTA ROSA,,CALLAO,CALLAO,CALLAO,PERU,-77.104714,-12.012107
Nido Travesuras,0x2c05,inicial,,AV SANTA ROSA,1,UB LA HUACA,SANTA ROSA 126,LA PERLA,CALLAO,CALLAO,PERU,-77.120058,-12.06672
Colegio John F Kennedy,0x2c05,colegio,(01) 465-0944,JR TUPAC AMARU,10,UB LA PERLA,TUPAC AMARU 1095,LA PERLA,CALLAO,CALLAO,PERU,-77.123563,-12.068577
Colegio Jose Olaya,0x2c05,colegio,(01) 429-7298,JR ATAHUALPA,7,UB BELLAVISTA LA PERLA,ATAHUALPA CDRA 7,LA PERLA,CALLAO,CALLAO,PERU,-77.126873,-12.069499
Hostal Los Cerezos,0x2b00,hotel,(01) 457-1183,JR TALARA,1,UB LOS CEREZOS,TALARA 115,LA PERLA,CALLAO,CALLAO,PERU,-77.111276,-12.070047
Palmetto Hotel,0x2b00,hotel,(01) 420-3649,AV LA MARINA,10,UB LOS CEREZOS,LA MARINA 1090,LA PERLA,CALLAO,CALLAO,PERU,-77.110812,-12.070152
IE Euroamerica,0x2c05,colegio,(01) 719-6489,AV HAYA DE LA TORRE,7,UB ALTAMAR II,VICTOR RAUL HAYA DE LA TORRE 709,LA PERLA,CALLAO,CALLAO,PERU,-77.112062,-12.07385
IEI Caminito Feliz,0x2c05,colegio,(01) 457-1218,AV PACIFICO,2,UB SANTA LUISA,PACIFICO 309,LA PERLA,CALLAO,CALLAO,PERU,-77.113474,-12.072122
Hospedaje Pacific,0x2b00,hotel,(01) 420-5147,AV CALLAO,4,UB FERROCARRIL,CALLAO 495,LA PERLA,CALLAO,CALLAO,PERU,-77.116344,-12.070988
IEI Nuestra Se?ora de Fatima,0x2c05,colegio,,JR RAMON CASTILLA,9,UB BENJAMIN DOIG LOSSIO I,,LA PERLA,CALLAO,CALLAO,PERU,-77.116221,-12.069697
Hostal Delfina,0x2b00,hotel,,AV FAUCETT,17,UB SAN JOSE,,BELLAVISTA (CALLAO),CALLAO,CALLAO,PERU,-77.097136,-12.060197
Salon de Recepciones San Jose,0x2f11,,,AV FAUCETT,17,UB SAN JOSE,FAUCETT 1780,BELLAVISTA (CALLAO),CALLAO,CALLAO,PERU,-77.097216,-12.059463
Iglesia de Jesucristo de los Santos de los Ultimos Dias,0x6404,iglesia,,AV FAUCETT,18,UB SAN JOSE,,BELLAVISTA (CALLAO),CALLAO,CALLAO,PERU,-77.097338,-12.058347
OPE Callao UIGV,0x2c05,universidad,(01) 561-1850,AV FAUCETT,17,UB SAN JOSE,FAUCETT 1627,BELLAVISTA (CALLAO),CALLAO,CALLAO,PERU,-77.097197,-12.059555
Colegio Ingenieria,0x2c05,colegio,,AV JOSE GALVEZ,12,UB BELLAVISTA LA PERLA,,LA PERLA,CALLAO,CALLAO,PERU,-77.124683,-12.066467
Modulo de Seguridad Ciudadana Bellavista,0x3001,serenazgo,,CA GAVIOTAS,2,UB SAN JOSE,,BELLAVISTA (CALLAO),CALLAO,CALLAO,PERU,-77.096769,-12.057451
Colegio Mariscal Santa Cruz,0x2c05,colegio,(01) 451-2948,AV SAN JOSE,2,UB SAN JOSE,SAN JOSE 289,BELLAVISTA (CALLAO),CALLAO,CALLAO,PERU,-77.095308,-12.054939
CEI Luceritos de Santa Cruz,0x2c05,inicial,(01) 451-2948,PJE AMADEO FREZIER,1,UB SAN JOSE,SAN JOSE 296,BELLAVISTA (CALLAO),CALLAO,CALLAO,PERU,-77.095571,-12.055113
Hostal Verona,0x2b00,hotel,,AV OSCAR R BENAVIDES,48,UB SAN JOSE,,BELLAVISTA (CALLAO),CALLAO,CALLAO,PERU,-77.094367,-12.053126
IEP Laura Vicu?a,0x2c05,colegio,(01) 451-3904,AV OSCAR R BENAVIDES,53,UB SAN JOAQUIN,OSCAR R BENAVIDES 5312,BELLAVISTA (CALLAO),CALLAO,CALLAO,PERU,-77.088321,-12.05209
Hospedaje Refugio del Amor,0x2f11,hotel,,AV DOMINICOS,6,UB JORGE CHAVEZ 2 ETAPA,,CALLAO,CALLAO,CALLAO,PERU,-77.094001,-12.015476
Salon de Recepciones San Francisco,0x2f11,,,AV DOMINICOS,6,UB JORGE CHAVEZ 2 ETAPA,,CALLAO,CALLAO,CALLAO,PERU,-77.093958,-12.015525
Terminales Portuarios Peruanos TPP,0x2f11,,,AV NESTOR GAMBETTA,,,,CALLAO,CALLAO,CALLAO,PERU,-77.126602,-11.997115
Panaderia,0x2a05,,,JR NARCISO DE LA COLINA,4,,,BELLAVISTA (CALLAO),CALLAO,CALLAO,PERU,-77.129424,-12.062767
Colegio Panamericana,0x2c05,,,JR FRANCISCO BOLOGNESI,5,,BOLOGNESI 598,BELLAVISTA (CALLAO),CALLAO,CALLAO,PERU,-77.129501,-12.063405
Edelnor,0x6405,,,AV SAENZ PE?A,10,,,BELLAVISTA (CALLAO),CALLAO,CALLAO,PERU,-77.133954,-12.059774
Chifa Ying Hua,0x2a04,,,AV MIGUEL GRAU,13,UB VIGIL,,BELLAVISTA (CALLAO),CALLAO,CALLAO,PERU,-77.132671,-12.061047
Restaurante Marco,0x2a00,,,JR MIGUEL GRAU,2,UB TRABAJADORES MARITIMOS DEL CALLAO,,BELLAVISTA (CALLAO),CALLAO,CALLAO,PERU,-77.127114,-12.060022
Hostal el Paraiso,0x2b01,,,AV GUARDIA CHALACA,19,UB SE?OR DE LOS MILAGROS,,BELLAVISTA (CALLAO),CALLAO,CALLAO,PERU,-77.124368,-12.061811
Centro Parroquial San Jose,0x2c0b,,,JR RAMON CASTILLA,8,UB BENJAMIN DOIG LOSSIO I,,LA PERLA,CALLAO,CALLAO,PERU,-77.117376,-12.0691
Mercado Ramon Castilla,0x2e02,,,JR AYACUCHO,3,UB MIRAFLORES,,LA PERLA,CALLAO,CALLAO,PERU,-77.113808,-12.070458
Conceited Pets Veterinaria,0x2f11,,,AV HAYA DE LA TORRE,5,UB SANTA LUISA,,LA PERLA,CALLAO,CALLAO,PERU,-77.111836,-12.072497
Hospedaje la Hacienda,0x2b01,,,AV HAYA DE LA TORRE,6,UB ALTAMAR II,,LA PERLA,CALLAO,CALLAO,PERU,-77.112095,-12.073103
Colegio Bandera de la Paz,0x2c05,,,JR ATAHUALPA,16,UB FUNDACION CIUDAD DE PAPEL,,LA PERLA,CALLAO,CALLAO,PERU,-77.119006,-12.07284
Testigos de Jehova,0x2c0b,,,JR ATAHUALPA,13,UB MIRAMAR,,LA PERLA,CALLAO,CALLAO,PERU,-77.121936,-12.071554
Conespor Casa Club,0x2d0a,,,AV SANTA ROSA,2,UB HELY CHAVEZ,,LA PERLA,CALLAO,CALLAO,PERU,-77.120521,-12.068106
Colegio los Libertadores,0x2c05,,,JR 2 DE MAYO,6,UB MAGISTERIAL,,LA PERLA,CALLAO,CALLAO,PERU,-77.117489,-12.069609
Farmacia Virgen de Fatima,0x2e05,,,JR 2 DE MAYO,6,UB MAGISTERIAL,,LA PERLA,CALLAO,CALLAO,PERU,-77.117989,-12.069337
Iep Mi amigo Jesus,0x2c05,,,AV PACIFICO,1,UB MIRADOR DE MONTEMAR,,LA PERLA,CALLAO,CALLAO,PERU,-77.115916,-12.071525
Iglesia JSUD,0x2c0b,,,JR PIURA,3,UB ALTAMAR II,,LA PERLA,CALLAO,CALLAO,PERU,-77.112555,-12.073814
Botica Virgen del Carmen,0x2e05,,,JR MIGUEL GRAU,9,,,BELLAVISTA (CALLAO),CALLAO,CALLAO,PERU,-77.129614,-12.066388
Campo Ferial Ni?o Jesus,0x2e04,,,JR MIGUEL GRAU,8,,,BELLAVISTA (CALLAO),CALLAO,CALLAO,PERU,-77.129435,-12.066302
Botica Farmatodo,0x2e05,,,JR MIGUEL GRAU,9,,,BELLAVISTA (CALLAO),CALLAO,CALLAO,PERU,-77.12954,-12.066546
Colegio America Kinder,0x2c05,,,AV OSCAR R BENAVIDES,19,,,CALLAO,CALLAO,CALLAO,PERU,-77.1246,-12.058494
CEN Mariscal Castilla,0x2c05,,,AV DE LA ALAMEDA,,UB MARISCAL RAMON CASTILLA,,CALLAO,CALLAO,CALLAO,PERU,-77.123541,-12.041392
Centro de Salud Aeropuerto,0x3002,,,CA CARLOS SALAVERRY,,UB JORGE CHAVEZ,,CALLAO,CALLAO,CALLAO,PERU,-77.098972,-12.03339
Hospital Alberto Barton,0x3002,hospital,,AV ARGENTINA,36,,,CALLAO,CALLAO,CALLAO,PERU,-77.107796,-12.049068
Essalud Salog,0x3002,hospital,,AV HUASCAR,,,,CALLAO,CALLAO,CALLAO,PERU,-77.109206,-12.046823
TTL Archivos,0x6405,,,AV GUARDIA CHALACA,18,UB SE?OR DE LOS MILAGROS,,BELLAVISTA (CALLAO),CALLAO,CALLAO,PERU,-77.124763,-12.061528
Rectorado Universidad del Callao,0x2c05,,,AV SAENZ PE?A,10,,,BELLAVISTA (CALLAO),CALLAO,CALLAO,PERU,-77.13356,-12.059711
IE Santa Rita de Casia,0x2c05,,,JR ABRAHAM LINCOLN,,UB BELLAVISTA LA PERLA,,LA PERLA,CALLAO,CALLAO,PAIS,-77.126508,-12.068195
Revision Tecnica Farenet,0x2f15,,,JR NARCISO DE LA COLINA,,UB BELLAVISTA,,BELLAVISTA (CALLAO),CALLAO,CALLAO,PAIS,-77.123781,-12.064924
IE Jose Galvez Egusquiza,0x2c05,colegio,,JR TALARA,,UB MARISCAL RAMON CASTILLA,,CALLAO,CALLAO,CALLAO,PAIS,-77.124587,-12.043944
Mercado Playa Rimac,0x2e02,,,CA JOSE OLAYA,2,UB PLAYA RIMAC,,CALLAO,CALLAO,CALLAO,PERU,-77.096321,-12.036761
IE 5036 Rafael Belaunde Diez,0x2c05,,,CA CHOCANO,2,UB PLAYA RIMAC,,CALLAO,CALLAO,CALLAO,PERU,-77.096783,-12.037556
Comisaria Playa Rimac,0x3001,policia,,PJE MIGUEL GRAU,1,UB PLAYA RIMAC,,CALLAO,CALLAO,CALLAO,PERU,-77.097049,-12.037664
Estadio Gualberto Lizarraga,0x2c08,estadio,,CALLE 7,,UB CIUDAD DEL PESCADOR,,BELLAVISTA (CALLAO),CALLAO,CALLAO,PERU,-77.110586,-12.059999
Universidad Cesar Vallejo,0x2c05,,,AV ARGENTINA,17,,,CALLAO,CALLAO,CALLAO,PERU,-77.123599,-12.050496
Farenet - Revisiones Tecnicas,0x2c05,,,AV ARGENTINA,17,,,CALLAO,CALLAO,CALLAO,PERU,-77.12406,-12.050529
I.E Santa Rosa de Lima 5099,0x2c05,colegio,,PASAJE 1,,AH BOCANEGRA SECTOR 5,,CALLAO,CALLAO,CALLAO,PERU,-77.101472,-12.023588
Mercado Plaza de Barrio,0x2e02,,,CA CALLE H,,AH BOCANEGRA SECTOR 5,,CALLAO,CALLAO,CALLAO,PERU,-77.10021,-12.023151
Hostal Las Vegas,0x2b01,,,CA CALLE 30A,,UB CIUDAD DEL PESCADOR ZONA 3,,BELLAVISTA (CALLAO),CALLAO,CALLAO,PERU,-77.109402,-12.062208
IEI 5011 Dario Arrus,0x2c05,inicial,,CA CALLE 30,,UB CIUDAD DEL PESCADOR ZONA 4,,BELLAVISTA (CALLAO),CALLAO,CALLAO,PERU,-77.112924,-12.062637
IE 5011 Dario Arrus,0x2c05,colegio,,CA CALLE 72C,,UB CIUDAD DEL PESCADOR ZONA 4,,BELLAVISTA (CALLAO),CALLAO,CALLAO,PERU,-77.113533,-12.062751
Especial San Antonio (CE),0x2c05,colegio,,CA CALLE 69B,,UB CIUDAD DEL PESCADOR ZONA 4,,BELLAVISTA (CALLAO),CALLAO,CALLAO,PERU,-77.11499,-12.063036
Chifa Pekin,0x2a04,,,CA CALLE 30,,UB CIUDAD DEL PESCADOR ZONA 4,,BELLAVISTA (CALLAO),CALLAO,CALLAO,PERU,-77.115677,-12.061024
Chifa Yuan Yu,0x2a04,,,CA FRANCISCO QUIROZ,,UB CIUDAD DEL PESCADOR ZONA 4,,BELLAVISTA (CALLAO),CALLAO,CALLAO,PERU,-77.115406,-12.060665
Botica EGN,0x2e05,,,AV JUAN PABLO II,,UB CIUDAD DEL PESCADOR ZONA 4,,BELLAVISTA (CALLAO),CALLAO,CALLAO,PERU,-77.115742,-12.061105
Chifa Xing Hui,0x2a04,,,AV JUAN PABLO II,,UB CIUDAD DEL PESCADOR ZONA 4,,BELLAVISTA (CALLAO),CALLAO,CALLAO,PERU,-77.115849,-12.061262
Hostal Lucky,0x2b01,,,AV JUAN PABLO II,,UB CIUDAD DEL PESCADOR ZONA 4,,BELLAVISTA (CALLAO),CALLAO,CALLAO,PERU,-77.115967,-12.061411
Cebicheria Delicias del Mar,0x2a0b,,,AV JUAN PABLO II,,UB CIUDAD DEL PESCADOR ZONA 4,,BELLAVISTA (CALLAO),CALLAO,CALLAO,PERU,-77.115998,-12.061475
Hostal Faro,0x2b01,,,AV JUAN PABLO II,3,UB CIUDAD DEL PESCADOR ZONA 4,,BELLAVISTA (CALLAO),CALLAO,CALLAO,PERU,-77.117206,-12.063082
Restaurante Sabor Hidalgo,0x2a00,,,AV JUAN PABLO II,3,UB CIUDAD DEL PESCADOR ZONA 4,,BELLAVISTA (CALLAO),CALLAO,CALLAO,PERU,-77.117161,-12.063038
Modulo de Serenazgo,0x3001,policia,,CA CALLE 64,,UB CIUDAD DEL PESCADOR ZONA 4,,BELLAVISTA (CALLAO),CALLAO,CALLAO,PERU,-77.117703,-12.063563
Modulo de Serenazgo,0x3001,,,CA CALLE 30,,UB CIUDAD DEL PESCADOR ZONA 3,,BELLAVISTA (CALLAO),CALLAO,CALLAO,PERU,-77.11259,-12.062571
IEI Peque?as Estrellas,0x2c05,inicial,(01) 420-7401,CA CALLE 30A,,UB CIUDAD DEL PESCADOR ZONA 3,CALLE 30A,BELLAVISTA (CALLAO),CALLAO,CALLAO,PERU,-77.110482,-12.062219
Iglesia Mormona,0x2c0b,,,CA LOLA VILAR,1,UB CONFECCIONES MILITARES,,BELLAVISTA (CALLAO),CALLAO,CALLAO,PERU,-77.112425,-12.061741
IEI Jose A Qui?ones,0x2c05,inicial,,CA ALAMOS,,PJ JOSE BOTERIN,,CALLAO,CALLAO,CALLAO,PERU,-77.122341,-12.05293
IE Jose A Qui?ones,0x2c05,colegio,,CA ALAMOS,,PJ JOSE BOTERIN,,CALLAO,CALLAO,CALLAO,PERU,-77.1222,-12.052769
Centro de Salud Santa Fe,0x3002,hospital,,AV ALFREDO PALACIOS,5,UB SANTA FE,,CALLAO,CALLAO,CALLAO,PERU,-77.123382,-12.053976
Centro de Salud Jose Boterin,0x3002,hospital,,CA ALHELIES,,PJ JOSE BOTERIN,,CALLAO,CALLAO,CALLAO,PERU,-77.119766,-12.053235
Messer Gases del Peru,0x6402,,(01) 413-1000,AV REPUBLICA DE ARGENTINA,23,,AV ARGENTINA 2228,CALLAO,CALLAO,CALLAO,PERU,-77.119568,-12.050469
Haug SAC,0x6402,,(01) 613-4545,AV REPUBLICA DE ARGENTINA,22,,AV ARGENTINA 2060,CALLAO,CALLAO,CALLAO,PERU,-77.120534,-12.050559
Balanza de camiones,0x2f00,varios,,AV ARGENTINA,21,,,CALLAO,CALLAO,CALLAO,PERU,-77.121223,-12.050591
Iglesia Santa teresa del Ni?o Jesus,0x2c0b,iglesia,,CA CALLE 3,,UB SAN FERNANDO,,CALLAO,CALLAO,CALLAO,PERU,-77.111101,-12.051578
IEP Angeles de Fatima,0x2c05,,,CA FRANCISCO FORCELLEDO,,UB EL ROCIO,,CALLAO,CALLAO,CALLAO,PERU,-77.10753,-12.055131
Iglesia JSUD,0x2c0b,iglesia,,CA FRANCISCO RETES,2,UB 10 DE JUNIO,,CALLAO,CALLAO,CALLAO,PERU,-77.109935,-12.054247
IEP Jesus Maestro,0x2c05,colegio,(01) 498-7230,CA DOMINGO VALLE RIESTRA,2,UB STELLA MARIS,CA VALLE RIESTRA 250,BELLAVISTA (CALLAO),CALLAO,CALLAO,PERU,-77.113124,-12.059233
IST Simon Bolivar,0x2c05,instituto,,CA CALLE 3,,UB CIUDAD DEL PESCADOR,,BELLAVISTA (CALLAO),CALLAO,CALLAO,PERU,-77.108864,-12.057935
Parroquia San Pedro,0x2c0b,,,CA CALLE 10B,,UB CIUDAD DEL PESCADOR,,BELLAVISTA (CALLAO),CALLAO,CALLAO,PERU,-77.109025,-12.05936
Policlinico Bellavista Essalud,0x3002,,,CALLE 10B,,UB CIUDAD DEL PESCADOR,,BELLAVISTA (CALLAO),CALLAO,CALLAO,PERU,-77.108992,-12.059838
Bodega,0x2e02,,,JR FERNANDO WIELAND,1,UB LOS PILARES,,CALLAO,CALLAO,CALLAO,PERU,-77.110951,-12.055087
Agente BBVA,0x2f06,,,JR FERNANDO WIELAND,1,UB LOS PILARES,,CALLAO,CALLAO,CALLAO,PERU,-77.110945,-12.055117
Agente Scotiabank,0x2f06,,,JR FERNANDO WIELAND,1,UB LOS PILARES,,CALLAO,CALLAO,CALLAO,PERU,-77.110941,-12.055141
Chifa Kang Fu,0x2a04,,,AV OSCAR R BENAVIDES,30,UB CIUDAD DEL PESCADOR,,BELLAVISTA (CALLAO),CALLAO,CALLAO,PERU,-77.110178,-12.056272
Cebicheria el Taku,0x2a0b,,,CA CALLE 3,,UB LOS PILARES,,CALLAO,CALLAO,CALLAO,PERU,-77.113423,-12.056384
Hostal Paraiso,0x2b01,,,AV PEREZ SALMON,7,COOP TRABAJADORES UNIDOS,AV COMANDANTE PEREZ SALMON 768,CALLAO,CALLAO,CALLAO,PERU,-77.113805,-12.053589
Bodega,0x2e02,,,AV PEREZ SALMON,7,UB LOS PILARES,,CALLAO,CALLAO,CALLAO,PERU,-77.113504,-12.053586
Agente BCP,0x2f06,,,AV PEREZ SALMON,7,UB LOS PILARES,,CALLAO,CALLAO,CALLAO,PERU,-77.113498,-12.05361
CE No 5050 San Pedro,0x2c05,colegio,,CALLE 47D,,UB CIUDAD DEL PESCADOR,,BELLAVISTA (CALLAO),CALLAO,CALLAO,PERU,-77.106735,-12.060834
IEI Virgen de la Puerta,0x2c05,,,AV OSCAR R BENAVIDES,36,AH 2 DE JULIO,,CALLAO,CALLAO,CALLAO,PERU,-77.106315,-12.054905
IEP Angeles de Fatima,0x2c05,,,AV OSCAR R BENAVIDES,34,UB EL ROCIO,,CALLAO,CALLAO,CALLAO,PERU,-77.106826,-12.055014
IEI Mi Peque?o Mundo,0x2c05,,,CA CALLE 3,,AH 2 DE JULIO,,CALLAO,CALLAO,CALLAO,PERU,-77.106584,-12.054466
Hostal Corona,0x2b01,hotel,,CA CALLE A,,UB LA SAGRADA FAMILIA,,BELLAVISTA (CALLAO),CALLAO,CALLAO,PERU,-77.102445,-12.06158
CE Lobachevsky,0x2c05,,,AV FAUCETT,19,UB JARDINES VIRU,,BELLAVISTA (CALLAO),CALLAO,CALLAO,PERU,-77.097866,-12.057279
IE The Tigers,0x2c05,colegio,(01) 662-0000,AV FAUCETT,18,UB JARDINES VIRU,FAUCETT 1853,BELLAVISTA (CALLAO),CALLAO,CALLAO,PERU,-77.097725,-12.058694
Parroquia San Pablo Viru,0x2c0b,,,CA ROBLES,5,UB JARDINES VIRU,,BELLAVISTA (CALLAO),CALLAO,CALLAO,PERU,-77.099697,-12.058473
Hostal Bohemia,0x2b01,hotel,,CA CALLE 3A,5,UB CIUDAD DEL PESCADOR,,BELLAVISTA (CALLAO),CALLAO,CALLAO,PERU,-77.105638,-12.057068
IEP Cristo Victorioso,0x2c05,,,AV AVENIDA 2,,UB CIUDAD DEL PESCADOR,,BELLAVISTA (CALLAO),CALLAO,CALLAO,PERU,-77.108603,-12.062538
Centro de Salud Peru - Corea,0x3002,hospital,,CALLE 30,,UB CIUDAD DEL PESCADOR,,BELLAVISTA (CALLAO),CALLAO,CALLAO,PERU,-77.106525,-12.061774
Pharma Val,0x2e05,,,CA CALLE 26,,UB CIUDAD DEL PESCADOR,,BELLAVISTA (CALLAO),CALLAO,CALLAO,PERU,-77.105187,-12.059761
Mercado la Chalaca,0x2e02,,,AV RIMAC,2,UB LA CHALACA,,CALLAO,CALLAO,CALLAO,PERU,-77.130095,-12.050066
Colegio Divina Pastora,0x2c05,,,PJE SAN AGUSTIN,,AH CIUDADELA CHALACA,,CALLAO,CALLAO,CALLAO,PERU,-77.131137,-12.050243
Mercado Reynoso Limitada,0x2e02,,,AV JULIO C TELLO,2,UB REYNOSO,,CARMEN DE LA LEGUA REYNOSO,CALLAO,CALLAO,PERU,-77.0963,-12.042124
Mercado de Carmen de la Legua,0x2e02,,,AV MANCO CAPAC,8,,,CARMEN DE LA LEGUA REYNOSO,CALLAO,CALLAO,PERU,-77.090284,-12.040169
IE Santa Rita de Casia,0x2c05,,,AV JOSE GALVEZ,1,UB BELLAVISTA LA PERLA,,LA PERLA,CALLAO,CALLAO,PERU,-77.132704,-12.067953
CE George Washington,0x2c05,,,JR FRANCISCO BOLOGNESI,4,,,BELLAVISTA (CALLAO),CALLAO,CALLAO,PERU,-77.129148,-12.062293
Mirador,0x5200,mirador,,JR TARAPACA,6,,,LA PUNTA,CALLAO,CALLAO,PERU,-77.159762,-12.07093
,,parque,,,,,,,CALLAO,CALLAO,PERU,,
,,parque,,,,,,,CALLAO,CALLAO,PERU,,
,,parque,,,,,,,CALLAO,CALLAO,PERU,,
,,parque,,,,,,,CALLAO,CALLAO,PERU,,
,,parque,,,,,,,CALLAO,CALLAO,PERU,,
,,parque,,,,,,,CALLAO,CALLAO,PERU,,
,,parque,,,,,,,CALLAO,CALLAO,PERU,,
,,parque,,,,,,,CALLAO,CALLAO,PERU,,
,,parque,,,,,,,CALLAO,CALLAO,PERU,,
,,parque,,,,,,,CALLAO,CALLAO,PERU,,
,,avenida,,AVENIDA SANTA ROSA PUNTO 1,,,AV SANTA ROSA,LA PERLA,CALLAO,CALLAO,PERU,-77.11837,-12.06430286
,,avenida,,AVENIDA SANTA ROSA PUNTO 2,,,AV SANTA ROSA,LA PERLA,CALLAO,CALLAO,PERU,-77.11703544,-12.06267315
,,avenida,,AVENIDA SANTA ROSA PUNTO 3,,,AV SANTA ROSA,LA PERLA,CALLAO,CALLAO,PERU,-77.11538006,-12.06045315
,,avenida,,AVENIDA SANTA ROSA PUNTO 4,,,AV SANTA ROSA,CALLAO,CALLAO,CALLAO,PERU,-77.11454596,-12.05913142
,,avenida,,AVENIDA SANTA ROSA PUNTO 5,,,AV SANTA ROSA,CALLAO,CALLAO,CALLAO,PERU,-77.11446897,-12.058015
,,avenida,,AVENIDA SANTA ROSA PUNTO 6,,,AV SANTA ROSA,CALLAO,CALLAO,CALLAO,PERU,-77.11459729,-12.05716807
,,avenida,,AVENIDA SANTA ROSA PUNTO 7,,,AV SANTA ROSA,CALLAO,CALLAO,CALLAO,PERU,-77.11461012,-12.05598749
,,avenida,,AVENIDA SANTA ROSA PUNTO 8,,,AV SANTA ROSA,CALLAO,CALLAO,CALLAO,PERU,-77.11475128,-12.05508923
,,avenida,,AVENIDA SANTA ROSA PUNTO 9,,,AV SANTA ROSA,CALLAO,CALLAO,CALLAO,PERU,-77.11482827,-12.05422946
,,avenida,,AVENIDA SANTA ROSA PUNTO 10,,,AV SANTA ROSA,CALLAO,CALLAO,CALLAO,PERU,-77.1148796,-12.0527794
,,avenida,,AVENIDA SANTA ROSA PUNTO 11,,,AV SANTA ROSA,CALLAO,CALLAO,CALLAO,PERU,-77.11499509,-12.05182981
,,avenida,,AVENIDA SANTA ROSA PUNTO 12,,,AV SANTA ROSA,CALLAO,CALLAO,CALLAO,PERU,-77.11504642,-12.05091871
,,avenida,,AVENIDA SANTA ROSA PUNTO 13,,,AV SANTA ROSA,CALLAO,CALLAO,CALLAO,PERU,-77.11518758,-12.04977663
,,avenida,,AVENIDA ELMER FAUCETT PUNTO 1,,,,,CALLAO,CALLAO,PERU,-77.09883083,-12.07255624
,,avenida,,AVENIDA ELMER FAUCETT PUNTO 2,,,,,CALLAO,CALLAO,PERU,-77.09820314,-12.07075974
,,avenida,,AVENIDA ELMER FAUCETT PUNTO 3,,,,,CALLAO,CALLAO,PERU,-77.09757544,-12.06848705
,,avenida,,AVENIDA ELMER FAUCETT PUNTO 4,,,,,CALLAO,CALLAO,PERU,-77.09720748,-12.06712344
,,avenida,,AVENIDA ELMER FAUCETT PUNTO 5,,,,,CALLAO,CALLAO,PERU,-77.09704515,-12.06560832
,,avenida,,AVENIDA ELMER FAUCETT PUNTO 6,,,,,CALLAO,CALLAO,PERU,-77.09706679,-12.0642447
,,avenida,,AVENIDA ELMER FAUCETT PUNTO 7,,,,,CALLAO,CALLAO,PERU,-77.09695857,-12.06316247
,,avenida,,AVENIDA ELMER FAUCETT PUNTO 8,,,,,CALLAO,CALLAO,PERU,-77.09711008,-12.06182051
,,avenida,,AVENIDA ELMER FAUCETT PUNTO 9,,,,,CALLAO,CALLAO,PERU,-77.09719666,-12.05989414
,,avenida,,AVENIDA ELMER FAUCETT PUNTO 10,,,,,CALLAO,CALLAO,PERU,-77.09729406,-12.05854135
,,avenida,,AVENIDA ELMER FAUCETT PUNTO 11,,,,,CALLAO,CALLAO,PERU,-77.0975538,-12.05714527
,,avenida,,AVENIDA ELMER FAUCETT PUNTO 12,,,,,CALLAO,CALLAO,PERU,-77.09752133,-12.05593317
,,avenida,,AVENIDA ELMER FAUCETT PUNTO 13,,,,,CALLAO,CALLAO,PERU,-77.09761873,-12.05490505
,,avenida,,AVENIDA ELMER FAUCETT PUNTO 14,,,,,CALLAO,CALLAO,PERU,-77.09796505,-12.05301114
,,avenida,,AVENIDA ELMER FAUCETT PUNTO 15,,,,,CALLAO,CALLAO,PERU,-77.09798669,-12.05209125
,,avenida,,AVENIDA ELMER FAUCETT PUNTO 16,,,,,CALLAO,CALLAO,PERU,-77.09812738,-12.05100902
,,avenida,,AVENIDA ELMER FAUCETT PUNTO 17,,,,,CALLAO,CALLAO,PERU,-77.09820314,-12.04898524
,,avenida,,AVENIDA ELMER FAUCETT PUNTO 18,,,,,CALLAO,CALLAO,PERU,-77.09825725,-12.0474593
,,avenida,,AVENIDA ELMER FAUCETT PUNTO 19,,,,,CALLAO,CALLAO,PERU,-77.09840876,-12.04599829
,,avenida,,AVENIDA ELMER FAUCETT PUNTO 20,,,,,CALLAO,CALLAO,PERU,-77.09863603,-12.04466714
,,avenida,,AVENIDA ELMER FAUCETT PUNTO 21,,,,,CALLAO,CALLAO,PERU,-77.09888494,-12.04093344
,,avenida,,AVENIDA ELMER FAUCETT PUNTO 22,,,,,CALLAO,CALLAO,PERU,-77.09914468,-12.03764346
,,avenida,,AVENIDA ELMER FAUCETT PUNTO 23,,,,,CALLAO,CALLAO,PERU,-77.09942606,-12.03530584
,,avenida,,AVENIDA ELMER FAUCETT PUNTO 24,,,,,CALLAO,CALLAO,PERU,-77.0996425,-12.03428855
,,avenida,,AVENIDA ELMER FAUCETT PUNTO 25,,,,,CALLAO,CALLAO,PERU,-77.09995635,-12.03341194
,,avenida,,AVENIDA ELMER FAUCETT PUNTO 26,,,,,CALLAO,CALLAO,PERU,-77.10072474,-12.03189681
,,avenida,,AVENIDA ELMER FAUCETT PUNTO 27,,,,,CALLAO,CALLAO,PERU,-77.10209917,-12.02919124
,,avenida,,AVENIDA ELMER FAUCETT PUNTO 28,,,,,CALLAO,CALLAO,PERU,-77.10291084,-12.0275246
,,avenida,,AVENIDA ELMER FAUCETT PUNTO 29,,,,,CALLAO,CALLAO,PERU,-77.10420952,-12.02513287
,,avenida,,AVENIDA ELMER FAUCETT PUNTO 30,,,,,CALLAO,CALLAO,PERU,-77.10608178,-12.02187535
,,avenida,,AVENIDA ELMER FAUCETT PUNTO 31,,,,,CALLAO,CALLAO,PERU,-77.1067203,-12.02036023
,,avenida,,AVENIDA ELMER FAUCETT PUNTO 32,,,,,CALLAO,CALLAO,PERU,-77.10808391,-12.01780616
,,avenida,,AVENIDA ELMER FAUCETT PUNTO 33,,,,,CALLAO,CALLAO,PERU,-77.10907956,-12.01577157
,,avenida,,AVENIDA ELMER FAUCETT PUNTO 34,,,,,CALLAO,CALLAO,PERU,-77.11052975,-12.01269803
,,avenida,,AVENIDA ELMER FAUCETT PUNTO 35,,,,,CALLAO,CALLAO,PERU,-77.11191501,-12.00971107
,,avenida,,AVENIDA ELMER FAUCETT PUNTO 36,,,,,CALLAO,CALLAO,PERU,-77.11308382,-12.00728688
,,avenida,,AVENIDA ELMER FAUCETT PUNTO 37,,,,,CALLAO,CALLAO,PERU,-77.11381973,-12.0057934
,,avenida,,AVENIDA PERU PUNTO 1,,,,,CALLAO,CALLAO,PERU,-77.09524567,-12.02995367
,,avenida,,AVENIDA PERU PUNTO 2,,,,,CALLAO,CALLAO,PERU,-77.09663841,-12.02919252
,,avenida,,AVENIDA PERU PUNTO 3,,,,,CALLAO,CALLAO,PERU,-77.09741575,-12.02796173
,,avenida,,AVENIDA PERU PUNTO 4,,,,,CALLAO,CALLAO,PERU,-77.097853,-12.02695766
,,avenida,,AVENIDA PERU PUNTO 5,,,,,CALLAO,CALLAO,PERU,-77.09879229,-12.02498192
,,avenida,,AVENIDA PERU PUNTO 6,,,,,CALLAO,CALLAO,PERU,-77.09952105,-12.02342723
,,avenida,,AVENIDA PERU PUNTO 7,,,,,CALLAO,CALLAO,PERU,-77.10020123,-12.0220183
,,avenida,,AVENIDA PERU PUNTO 8,,,,,CALLAO,CALLAO,PERU,-77.10110812,-12.02030167
,,avenida,,AVENIDA PERU PUNTO 9,,,,,CALLAO,CALLAO,PERU,-77.09356143,-12.03027756
,,avenida,,AVENIDA PERU PUNTO 10,,,,,CALLAO,CALLAO,PERU,-77.09210391,-12.03040712
,,avenida,,AVENIDA PERU PUNTO 11,,,,,CALLAO,CALLAO,PERU,-77.0906464,-12.03050428
,,avenida,,AVENIDA PERU PUNTO 12,,,,,CALLAO,CALLAO,PERU,-77.08891357,-12.03068242
,,avenida,,AVENIDA PERU PUNTO 13,,,,,CALLAO,CALLAO,PERU,-77.08700261,-12.03090915
,,avenida,,AVENIDA PERU PUNTO 14,,,,,CALLAO,CALLAO,PERU,-77.08501067,-12.03113587
,,avenida,,AVENIDA PERU PUNTO 15,,,,,CALLAO,CALLAO,PERU,-77.08348837,-12.03126543
,,avenida,,AVENIDA PERU PUNTO 16,,,,,CALLAO,CALLAO,PERU,-77.08232236,-12.03155693
,,avenida,,AVENIDA PERU PUNTO 17,,,,,CALLAO,CALLAO,PERU,-77.08057334,-12.03162171
,,avenida,,AVENIDA PERU PUNTO 18,,,,,CALLAO,CALLAO,PERU,-77.07848423,-12.03199419
,,avenida,,AVENIDA PERU PUNTO 19,,,,,CALLAO,CALLAO,PERU,-77.07610362,-12.03207516
,,avenida,,AVENIDA PERU PUNTO 20,,,,,CALLAO,CALLAO,PERU,-77.07440319,-12.03205897
,,avenida,,AVENIDA PERU PUNTO 21,,,,,CALLAO,CALLAO,PERU,-77.07241125,-12.03192941
,,avenida,,AVENIDA PERU PUNTO 22,,,,,CALLAO,CALLAO,PERU,-77.07067842,-12.03205897
,,avenida,,AVENIDA PERU PUNTO 23,,,,,CALLAO,CALLAO,PERU,-77.0689294,-12.03192941
,,avenida,,AVENIDA PERU PUNTO 24,,,,,CALLAO,CALLAO,PERU,-77.06718038,-12.03213994
,,avenida,,AVENIDA PERU PUNTO 25,,,,,CALLAO,CALLAO,PERU,-77.06539898,-12.03233428
,,avenida,,AVENIDA PERU PUNTO 26,,,,,CALLAO,CALLAO,PERU,-77.06366615,-12.03249622
,,avenida,,AVENIDA PERU PUNTO 27,,,,,CALLAO,CALLAO,PERU,-77.06160943,-12.03283631
,,avenida,,AVENIDA PERU PUNTO 28,,,,,CALLAO,CALLAO,PERU,-77.0592936,-12.03306303
,,avenida,,AVENIDA PACASMAYO PUNTO 1,,,,,CALLAO,CALLAO,PERU,-77.09179794,-12.02269839
,,avenida,,AVENIDA PACASMAYO PUNTO 2,,,,,CALLAO,CALLAO,PERU,-77.093778,-12.02157715
,,avenida,,AVENIDA PACASMAYO PUNTO 3,,,,,CALLAO,CALLAO,PERU,-77.09494696,-12.02093303
,,avenida,,AVENIDA PACASMAYO PUNTO 4,,,,,CALLAO,CALLAO,PERU,-77.09695088,-12.01914382
,,avenida,,AVENIDA PACASMAYO PUNTO 5,,,,,CALLAO,CALLAO,PERU,-77.09771427,-12.01787944
,,avenida,,AVENIDA PACASMAYO PUNTO 6,,,,,CALLAO,CALLAO,PERU,-77.09859695,-12.01606637
,,avenida,,AVENIDA PACASMAYO PUNTO 7,,,,,CALLAO,CALLAO,PERU,-77.09905022,-12.01484971
,,avenida,,AVENIDA PACASMAYO PUNTO 8,,,,,CALLAO,CALLAO,PERU,-77.10000447,-12.01339448
,,avenida,,AVENIDA PACASMAYO PUNTO 9,,,,,CALLAO,CALLAO,PERU,-77.10026689,-12.01222553
,,avenida,,AVENIDA PACASMAYO PUNTO 10,,,,,CALLAO,CALLAO,PERU,-77.10095872,-12.011152
,,avenida,,AVENIDA PACASMAYO PUNTO 11,,,,,CALLAO,CALLAO,PERU,-77.10134041,-12.01015004
,,avenida,,AVENIDA PACASMAYO PUNTO 12,,,,,CALLAO,CALLAO,PERU,-77.10191296,-12.00912422
,,avenida,,AVENIDA PACASMAYO PUNTO 13,,,,,CALLAO,CALLAO,PERU,-77.10255708,-12.00759743
,,avenida,,AVENIDA PACASMAYO PUNTO 14,,,,,CALLAO,CALLAO,PERU,-77.10308192,-12.0065239
,,avenida,,AVENIDA PACASMAYO PUNTO 15,,,,,CALLAO,CALLAO,PERU,-77.10386917,-12.00502096
,,avenida,,AVENIDA PACASMAYO PUNTO 16,,,,,CALLAO,CALLAO,PERU,-77.10448943,-12.003852
,,avenida,,AVENIDA PACASMAYO PUNTO 17,,,,,CALLAO,CALLAO,PERU,-77.1049427,-12.0028739
,,avenida,,AVENIDA PACASMAYO PUNTO 18,,,,,CALLAO,CALLAO,PERU,-77.10565838,-12.00175266
,,avenida,,AVENIDA PACASMAYO PUNTO 19,,,,,CALLAO,CALLAO,PERU,-77.10646949,-12.0001543
,,avenida,,AVENIDA PACASMAYO PUNTO 20,,,,,CALLAO,CALLAO,PERU,-77.10737603,-11.99831737
,,avenida,,AVENIDA PACASMAYO PUNTO 21,,,,,CALLAO,CALLAO,PERU,-77.1084257,-11.99633731
,,avenida,,AVENIDA PACASMAYO PUNTO 22,,,,,CALLAO,CALLAO,PERU,-77.1095708,-11.99459581
,,avenida,,AVENIDA ARGENTINA PUNTO 1,,,,,CALLAO,CALLAO,PERU,-77.08642163,-12.04646712
,,avenida,,AVENIDA ARGENTINA PUNTO 2,,,,,CALLAO,CALLAO,PERU,-77.08981926,-12.0469525
,,avenida,,AVENIDA ARGENTINA PUNTO 3,,,,,CALLAO,CALLAO,PERU,-77.09280086,-12.04750721
,,avenida,,AVENIDA ARGENTINA PUNTO 4,,,,,CALLAO,CALLAO,PERU,-77.09391029,-12.04736853
,,avenida,,AVENIDA ARGENTINA PUNTO 5,,,,,CALLAO,CALLAO,PERU,-77.09585179,-12.04736853
,,avenida,,AVENIDA ARGENTINA PUNTO 6,,,,,CALLAO,CALLAO,PERU,-77.09987348,-12.04820061
,,avenida,,AVENIDA ARGENTINA PUNTO 7,,,,,CALLAO,CALLAO,PERU,-77.10410318,-12.04847796
,,avenida,,AVENIDA ARGENTINA PUNTO 8,,,,,CALLAO,CALLAO,PERU,-77.10874892,-12.04896334
,,avenida,,AVENIDA ARGENTINA PUNTO 9,,,,,CALLAO,CALLAO,PERU,-77.11020505,-12.04882466
,,avenida,,AVENIDA ARGENTINA PUNTO 10,,,,,CALLAO,CALLAO,PERU,-77.11339466,-12.04937938
,,avenida,,AVENIDA ARGENTINA PUNTO 11,,,,,CALLAO,CALLAO,PERU,-77.11623758,-12.04937938
,,avenida,,AVENIDA ARGENTINA PUNTO 12,,,,,CALLAO,CALLAO,PERU,-77.1190805,-12.04958739
,,avenida,,AVENIDA ARGENTINA PUNTO 13,,,,,CALLAO,CALLAO,PERU,-77.12268615,-12.04972607
,,avenida,,AVENIDA JUAN VELAZSCO DE ALVARADO PUNTO 1,,,,,CALLAO,CALLAO,PERU,-77.10552464,-12.05591462
,,avenida,,AVENIDA JUAN VELAZSCO DE ALVARADO PUNTO 2,,,,,CALLAO,CALLAO,PERU,-77.10601002,-12.05253432
,,avenida,,AVENIDA JUAN VELAZSCO DE ALVARADO PUNTO 3,,,,,CALLAO,CALLAO,PERU,-77.10599268,-12.05431981
,,avenida,,AVENIDA JUAN VELAZSCO DE ALVARADO PUNTO 4,,,,,CALLAO,CALLAO,PERU,-77.10606202,-12.05009011
,,avenida,,AVENIDA JUAN VELAZSCO DE ALVARADO PUNTO 5,,,,,CALLAO,CALLAO,PERU,-77.10614869,-12.05168491
,,avenida,,AV OSCAR BENDAVIDES PUNTO 1,,,,,CALLAO,CALLAO,PERU,-77.08790376,-12.05159824
,,avenida,,AV OSCAR BENDAVIDES PUNTO 2,,,,,CALLAO,CALLAO,PERU,-77.0891172,-12.05177159
,,avenida,,AV OSCAR BENDAVIDES PUNTO 3,,,,,CALLAO,CALLAO,PERU,-77.08994927,-12.05196227
,,avenida,,AV OSCAR BENDAVIDES PUNTO 4,,,,,CALLAO,CALLAO,PERU,-77.09196011,-12.05218762
,,avenida,,AV OSCAR BENDAVIDES PUNTO 5,,,,,CALLAO,CALLAO,PERU,-77.09365893,-12.05239564
,,avenida,,AV OSCAR BENDAVIDES PUNTO 6,,,,,CALLAO,CALLAO,PERU,-77.09468169,-12.05275967
,,avenida,,AV OSCAR BENDAVIDES PUNTO 7,,,,,CALLAO,CALLAO,PERU,-77.09542709,-12.05289835
,,avenida,,AV OSCAR BENDAVIDES PUNTO 8,,,,,CALLAO,CALLAO,PERU,-77.09738592,-12.05317571
,,avenida,,AV OSCAR BENDAVIDES PUNTO 9,,,,,CALLAO,CALLAO,PERU,-77.09996882,-12.05369576
,,avenida,,AV OSCAR BENDAVIDES PUNTO 10,,,,,CALLAO,CALLAO,PERU,-77.10149429,-12.05395578
,,avenida,,AV OSCAR BENDAVIDES PUNTO 11,,,,,CALLAO,CALLAO,PERU,-77.10438921,-12.05451049
,,avenida,,AV OSCAR BENDAVIDES PUNTO 12,,,,,CALLAO,CALLAO,PERU,-77.10704144,-12.05516922
,,avenida,,AV OSCAR BENDAVIDES PUNTO 13,,,,,CALLAO,CALLAO,PERU,-77.10912162,-12.05529056
,,avenida,,AV OSCAR BENDAVIDES PUNTO 14,,,,,CALLAO,CALLAO,PERU,-77.11135782,-12.05598396
,,avenida,,AV OSCAR BENDAVIDES PUNTO 15,,,,,CALLAO,CALLAO,PERU,-77.11406206,-12.05648667
,,avenida,,AV OSCAR BENDAVIDES PUNTO 16,,,,,CALLAO,CALLAO,PERU,-77.11589955,-12.05709339
,,avenida,,AV OSCAR BENDAVIDES PUNTO 17,,,,,CALLAO,CALLAO,PERU,-77.11697431,-12.05721473
,,avenida,,AV OSCAR BENDAVIDES PUNTO 18,,,,,CALLAO,CALLAO,PERU,-77.1191585,-12.05768277
,,avenida,,AV OSCAR BENDAVIDES PUNTO 19,,,,,CALLAO,CALLAO,PERU,-77.12245213,-12.05825482
,,avenida,,AV OSCAR BENDAVIDES PUNTO 20,,,,,CALLAO,CALLAO,PERU,-77.12526037,-12.05865352
,,avenida,,AV PERU PUNTO 1,,,,,CALLAO,CALLAO,PERU,-77.09524567,-12.02995367
,,avenida,,AV PERU PUNTO 2,,,,,CALLAO,CALLAO,PERU,-77.09663841,-12.02919252
,,avenida,,AV PERU PUNTO 3,,,,,CALLAO,CALLAO,PERU,-77.09741575,-12.02796173
,,avenida,,AV PERU PUNTO 4,,,,,CALLAO,CALLAO,PERU,-77.097853,-12.02695766
,,avenida,,AV PERU PUNTO 5,,,,,CALLAO,CALLAO,PERU,-77.09879229,-12.02498192
,,avenida,,AV PERU PUNTO 6,,,,,CALLAO,CALLAO,PERU,-77.09952105,-12.02342723
,,avenida,,AV PERU PUNTO 7,,,,,CALLAO,CALLAO,PERU,-77.10020123,-12.0220183
,,avenida,,AV PERU PUNTO 8,,,,,CALLAO,CALLAO,PERU,-77.10110812,-12.02030167
,,avenida,,AV PERU PUNTO 9,,,,,CALLAO,CALLAO,PERU,-77.09356143,-12.03027756
,,avenida,,AV PERU PUNTO 10,,,,,CALLAO,CALLAO,PERU,-77.09210391,-12.03040712
,,avenida,,AV PERU PUNTO 11,,,,,CALLAO,CALLAO,PERU,-77.0906464,-12.03050428
,,avenida,,AV PERU PUNTO 12,,,,,CALLAO,CALLAO,PERU,-77.08891357,-12.03068242
,,avenida,,AV PERU PUNTO 13,,,,,CALLAO,CALLAO,PERU,-77.08700261,-12.03090915
,,avenida,,AV PERU PUNTO 14,,,,,CALLAO,CALLAO,PERU,-77.08501067,-12.03113587
,,avenida,,AV PERU PUNTO 15,,,,,CALLAO,CALLAO,PERU,-77.08348837,-12.03126543
,,avenida,,AV PERU PUNTO 16,,,,,CALLAO,CALLAO,PERU,-77.08232236,-12.03155693
,,avenida,,AV PERU PUNTO 17,,,,,CALLAO,CALLAO,PERU,-77.08057334,-12.03162171
,,avenida,,AV PERU PUNTO 18,,,,,CALLAO,CALLAO,PERU,-77.07848423,-12.03199419
,,avenida,,AV PERU PUNTO 19,,,,,CALLAO,CALLAO,PERU,-77.07610362,-12.03207516
,,avenida,,AV PERU PUNTO 20,,,,,CALLAO,CALLAO,PERU,-77.07440319,-12.03205897
,,avenida,,AV PERU PUNTO 21,,,,,CALLAO,CALLAO,PERU,-77.07241125,-12.03192941
,,avenida,,AV PERU PUNTO 22,,,,,CALLAO,CALLAO,PERU,-77.07067842,-12.03205897
,,avenida,,AV PERU PUNTO 23,,,,,CALLAO,CALLAO,PERU,-77.0689294,-12.03192941
,,avenida,,AV PERU PUNTO 24,,,,,CALLAO,CALLAO,PERU,-77.06718038,-12.03213994
,,avenida,,AV PERU PUNTO 25,,,,,CALLAO,CALLAO,PERU,-77.06539898,-12.03233428
,,avenida,,AV PERU PUNTO 26,,,,,CALLAO,CALLAO,PERU,-77.06366615,-12.03249622
,,avenida,,AV PERU PUNTO 27,,,,,CALLAO,CALLAO,PERU,-77.06160943,-12.03283631
,,avenida,,AV PERU PUNTO 28,,,,,CALLAO,CALLAO,PERU,-77.0592936,-12.03306303
,,avenida,,AV TOMAS VALLE PUNTO 1,,,,,CALLAO,CALLAO,PERU,-77.10420719,-12.02108889
,,avenida,,AV TOMAS VALLE PUNTO 2,,,,,CALLAO,CALLAO,PERU,-77.10288974,-12.02065552
,,avenida,,AV TOMAS VALLE PUNTO 3,,,,,CALLAO,CALLAO,PERU,-77.10054954,-12.0192514
,,avenida,,AV TOMAS VALLE PUNTO 4,,,,,CALLAO,CALLAO,PERU,-77.09954411,-12.01854067
,,avenida,,AV TOMAS VALLE PUNTO 5,,,,,CALLAO,CALLAO,PERU,-77.09761995,-12.01639115
,,avenida,,AV TOMAS VALLE PUNTO 6,,,,,CALLAO,CALLAO,PERU,-77.09576512,-12.01460566
,,avenida,,AV TOMAS VALLE PUNTO 7,,,,,CALLAO,CALLAO,PERU,-77.09377161,-12.01311486
,,avenida,,AV TOMAS VALLE PUNTO 8,,,,,CALLAO,CALLAO,PERU,-77.09179543,-12.01223078
,,avenida,,AV TOMAS VALLE PUNTO 9,,,,,CALLAO,CALLAO,PERU,-77.09046065,-12.01212677
,,avenida,,AV BOCANEGRA PUNTO 1,,,,,CALLAO,CALLAO,PERU,-77.10762216,-12.01075732
,,avenida,,AV BOCANEGRA PUNTO 2,,,,,CALLAO,CALLAO,PERU,-77.10519528,-12.00956121
,,avenida,,AV BOCANEGRA PUNTO 3,,,,,CALLAO,CALLAO,PERU,-77.10386049,-12.00904117
,,avenida,,AV BOCANEGRA PUNTO 4,,,,,CALLAO,CALLAO,PERU,-77.10288974,-12.00857313
,,avenida,,AV BOCANEGRA PUNTO 5,,,,,CALLAO,CALLAO,PERU,-77.10106958,-12.00770638
,,avenida,,AV BOCANEGRA PUNTO 6,,,,,CALLAO,CALLAO,PERU,-77.0997868,-12.00720367
,,avenida,,AV BOCANEGRA PUNTO 7,,,,,CALLAO,CALLAO,PERU,-77.09820933,-12.00618092
,,avenida,,AV BOCANEGRA PUNTO 8,,,,,CALLAO,CALLAO,PERU,-77.09664919,-12.00555686
,,avenida,,AV BOCANEGRA PUNTO 9,,,,,CALLAO,CALLAO,PERU,-77.09564377,-12.00507148
,,avenida,,AV COLECTORA PUNTO 1,,,,,CALLAO,CALLAO,PERU,-77.10910429,-12.00274861
,,avenida,,AV COLECTORA PUNTO 2,,,,,CALLAO,CALLAO,PERU,-77.1081162,-12.00241058
,,avenida,,AV COLECTORA PUNTO 3,,,,,CALLAO,CALLAO,PERU,-77.10715412,-12.0018212
,,avenida,,AV COLECTORA PUNTO 4,,,,,CALLAO,CALLAO,PERU,-77.10642605,-12.00150917
,,avenida,,AV BERTELLO PUNTO 1,,,,,CALLAO,CALLAO,PERU,-77.10262105,-12.01745724
,,avenida,,AV BERTELLO PUNTO 2,,,,,CALLAO,CALLAO,PERU,-77.10348779,-12.01579309
,,avenida,,AV BERTELLO PUNTO 3,,,,,CALLAO,CALLAO,PERU,-77.10425053,-12.01402494
,,avenida,,AV BERTELLO PUNTO 4,,,,,CALLAO,CALLAO,PERU,-77.10522128,-12.01215277
,,avenida,,AV BERTELLO PUNTO 5,,,,,CALLAO,CALLAO,PERU,-77.10695477,-12.00880715
,,avenida,,AV BERTELLO PUNTO 6,,,,,CALLAO,CALLAO,PERU,-77.10820287,-12.00629359
,,avenida,,AV BERTELLO PUNTO 7,,,,,CALLAO,CALLAO,PERU,-77.10894827,-12.00452544
,,avenida,,AV BERTELLO PUNTO 8,,,,,CALLAO,CALLAO,PERU,-77.10988436,-12.00286129
,,avenida,,AV BERTELLO PUNTO 9,,,,,CALLAO,CALLAO,PERU,-77.11050841,-12.0014745
,,avenida,,AV BERTELLO PUNTO 10,,,,,CALLAO,CALLAO,PERU,-77.1115485,-11.99963701
,,avenida,,AV BERTELLO PUNTO 11,,,,,CALLAO,CALLAO,PERU,-77.11236324,-11.99807687
,,avenida,,AV BERTELLO PUNTO 12,,,,,CALLAO,CALLAO,PERU,-77.11523216,-11.98673987
,,avenida,,AV BERTELLO PUNTO 13,,,,,CALLAO,CALLAO,PERU,-77.11595156,-11.9851364
,,avenida,,AV BERTELLO PUNTO 14,,,,,CALLAO,CALLAO,PERU,-77.11531017,-11.98361093
,,avenida,,AV BERTELLO PUNTO 15,,,,,CALLAO,CALLAO,PERU,-77.11484212,-11.98259684
,,avenida,,AV BERTELLO PUNTO 16,,,,,CALLAO,CALLAO,PERU,-77.1145041,-11.98111471
,,avenida,,AV BERTELLO PUNTO 17,,,,,CALLAO,CALLAO,PERU,-77.11466011,-11.98019597
,,avenida,,AV BERTELLO PUNTO 18,,,,,CALLAO,CALLAO,PERU,-77.1149288,-11.97900853
,,avenida,,AV BERTELLO PUNTO 19,,,,,CALLAO,CALLAO,PERU,-77.11521482,-11.97834114
,,avenida,,AV BERTELLO PUNTO 20,,,,,CALLAO,CALLAO,PERU,-77.11576087,-11.9775264
,,avenida,,AV BERTELLO PUNTO 21,,,,,CALLAO,CALLAO,PERU,-77.1164456,-11.97634763
,,avenida,,AV BERTELLO PUNTO 22,,,,,CALLAO,CALLAO,PERU,-77.1168703,-11.97549822
,,avenida,,AV BERTELLO PUNTO 23,,,,,CALLAO,CALLAO,PERU,-77.11754636,-11.97467481
,,avenida,,AV LOS ALISOS PUNTO 1,,,,,CALLAO,CALLAO,PERU,-77.11908916,-11.97176689
,,avenida,,AV LOS ALISOS PUNTO 2,,,,,CALLAO,CALLAO,PERU,-77.11936219,-11.9710475
,,avenida,,AV LOS ALISOS PUNTO 3,,,,,CALLAO,CALLAO,PERU,-77.11974789,-11.97003774
,,avenida,,AV LOS ALISOS PUNTO 4,,,,,CALLAO,CALLAO,PERU,-77.12022893,-11.96908432
,,avenida,,AV LOS ALISOS PUNTO 5,,,,,CALLAO,CALLAO,PERU,-77.12061897,-11.96863795
,,avenida,,AV LOS ALISOS PUNTO 6,,,,,CALLAO,CALLAO,PERU,-77.12102633,-11.96819158
,,avenida,,AV LOS ALISOS PUNTO 7,,,,,CALLAO,CALLAO,PERU,-77.12147704,-11.96754585
,,avenida,,AV LOS ALISOS PUNTO 8,,,,,CALLAO,CALLAO,PERU,-77.1222051,-11.96672245
,,avenida,,AV LOS ALISOS PUNTO 9,,,,,CALLAO,CALLAO,PERU,-77.12254747,-11.96601605
,,avenida,,AV LOS ALISOS PUNTO 10,,,,,CALLAO,CALLAO,PERU,-77.12280316,-11.96528366
,,avenida,,AV LOS ALISOS PUNTO 11,,,,,CALLAO,CALLAO,PERU,-77.12307185,-11.96456426
,,avenida,,AV LOS ALISOS PUNTO 12,,,,,CALLAO,CALLAO,PERU,-77.12430696,-11.96332482
,,avenida,,AV CENTRAL PUNTO 1,,,,,CALLAO,CALLAO,PERU,-77.11368502,-11.94114487
,,avenida,,AV CENTRAL PUNTO 2,,,,,CALLAO,CALLAO,PERU,-77.11282695,-11.93912536
,,avenida,,AV CENTRAL PUNTO 3,,,,,CALLAO,CALLAO,PERU,-77.11248892,-11.93769523
,,avenida,,AV CENTRAL PUNTO 4,,,,,CALLAO,CALLAO,PERU,-77.11235024,-11.93569306
,,avenida,,AV CENTRAL PUNTO 5,,,,,CALLAO,CALLAO,PERU,-77.11243691,-11.93401158
,,avenida,,AV CENTRAL PUNTO 6,,,,,CALLAO,CALLAO,PERU,-77.113477,-11.93182738
,,avenida,,AV CENTRAL PUNTO 7,,,,,CALLAO,CALLAO,PERU,-77.11493313,-11.93068328
,,avenida,,AV CENTRAL PUNTO 8,,,,,CALLAO,CALLAO,PERU,-77.11690931,-11.92936583
,,avenida,,AV CENTRAL PUNTO 9,,,,,CALLAO,CALLAO,PERU,-77.117256,-11.92732032
,,avenida,,AV CENTRAL PUNTO 10,,,,,CALLAO,CALLAO,PERU,-77.11708265,-11.92579485
,,avenida,,AV CENTRAL PUNTO 11,,,,,CALLAO,CALLAO,PERU,-77.11718666,-11.92361066
,,avenida,,AV CENTRAL PUNTO 12,,,,,CALLAO,CALLAO,PERU,-77.11732534,-11.92125312
,,avenida,,AV CENTRAL PUNTO 13,,,,,CALLAO,CALLAO,PERU,-77.11732534,-11.91917294
,,avenida,,AV CENTRAL PUNTO 14,,,,,CALLAO,CALLAO,PERU,-77.11701332,-11.91723144
,,avenida,,AV CENTRAL PUNTO 15,,,,,CALLAO,CALLAO,PERU,-77.11638926,-11.91528993
,,avenida,,AV CENTRAL PUNTO 16,,,,,CALLAO,CALLAO,PERU,-77.11576521,-11.91366045
,,avenida,,AV CENTRAL PUNTO 17,,,,,CALLAO,CALLAO,PERU,-77.11500247,-11.91196164
,,avenida,,AV CENTRAL PUNTO 18,,,,,CALLAO,CALLAO,PERU,-77.11375436,-11.91012414
,,avenida,,AV CENTRAL PUNTO 19,,,,,CALLAO,CALLAO,PERU,-77.11354634,-11.90870269
,,avenida,,AV CENTRAL PUNTO 20,,,,,CALLAO,CALLAO,PERU,-77.11240224,-11.90728123
,,avenida,,AV CENTRAL PUNTO 21,,,,,CALLAO,CALLAO,PERU,-77.11018338,-11.90721189
,,avenida,,AV CENTRAL PUNTO 22,,,,,CALLAO,CALLAO,PERU,-77.10772183,-11.90800929
,,avenida,,AV CENTRAL PUNTO 23,,,,,CALLAO,CALLAO,PERU,-77.10553764,-11.90877203
,,avenida,,AV CENTRAL PUNTO 24,,,,,CALLAO,CALLAO,PERU,-77.1046709,-11.90894537
,,avenida,,AV CENTRAL PUNTO 25,,,,,CALLAO,CALLAO,PERU,-77.10220935,-11.90877203
,,avenida,,AV AREQUIPA PUNTO 1,,,,,CALLAO,CALLAO,PERU,-77.1126276,-11.94174292
,,avenida,,AV AREQUIPA PUNTO 2,,,,,CALLAO,CALLAO,PERU,-77.11181286,-11.93976675
,,avenida,,AV AREQUIPA PUNTO 3,,,,,CALLAO,CALLAO,PERU,-77.11125814,-11.93789458
,,avenida,,AV AREQUIPA PUNTO 4,,,,,CALLAO,CALLAO,PERU,-77.1111888,-11.93572773
,,avenida,,AV AREQUIPA PUNTO 5,,,,,CALLAO,CALLAO,PERU,-77.11143149,-11.93382089
,,avenida,,AV AREQUIPA PUNTO 6,,,,,CALLAO,CALLAO,PERU,-77.11224623,-11.93148069
,,avenida,,AV AREQUIPA PUNTO 7,,,,,CALLAO,CALLAO,PERU,-77.1141704,-11.92992055
,,avenida,,AV AREQUIPA PUNTO 8,,,,,CALLAO,CALLAO,PERU,-77.11592122,-11.92881112
,,avenida,,AV AREQUIPA PUNTO 9,,,,,CALLAO,CALLAO,PERU,-77.1161119,-11.9270603
,,avenida,,AV AREQUIPA PUNTO 10,,,,,CALLAO,CALLAO,PERU,-77.11607723,-11.92569085
,,avenida,,AV AREQUIPA PUNTO 11,,,,,CALLAO,CALLAO,PERU,-77.11607723,-11.92340264
,,avenida,,AV AREQUIPA PUNTO 12,,,,,CALLAO,CALLAO,PERU,-77.11614657,-11.92120112
,,avenida,,AV AREQUIPA PUNTO 13,,,,,CALLAO,CALLAO,PERU,-77.11621591,-11.91912093
,,avenida,,AV AREQUIPA PUNTO 14,,,,,CALLAO,CALLAO,PERU,-77.11590388,-11.91743945
,,avenida,,AV AREQUIPA PUNTO 15,,,,,CALLAO,CALLAO,PERU,-77.11519316,-11.91575797
,,avenida,,AV AREQUIPA PUNTO 16,,,,,CALLAO,CALLAO,PERU,-77.11444776,-11.91397248
,,avenida,,AV AREQUIPA PUNTO 17,,,,,CALLAO,CALLAO,PERU,-77.11378903,-11.91241235
,,prolongacion,,PROLONGACIÓN NEPTUNO PUNTO 1,,,,,CALLAO,CALLAO,PERU,-77.13406215,-11.88218902
,,prolongacion,,PROLONGACIÓN NEPTUNO PUNTO 2,,,,,CALLAO,CALLAO,PERU,-77.13323874,-11.8822757
,,prolongacion,,PROLONGACIÓN NEPTUNO PUNTO 3,,,,,CALLAO,CALLAO,PERU,-77.13284871,-11.88221503
,,prolongacion,,PROLONGACIÓN NEPTUNO PUNTO 4,,,,,CALLAO,CALLAO,PERU,-77.13247601,-11.88219769
,,prolongacion,,PROLONGACIÓN NEPTUNO PUNTO 5,,,,,CALLAO,CALLAO,PERU,-77.13210331,-11.88219769
,,prolongacion,,PROLONGACIÓN NEPTUNO PUNTO 6,,,,,CALLAO,CALLAO,PERU,-77.13163527,-11.88217169
,,prolongacion,,PROLONGACIÓN NEPTUNO PUNTO 7,,,,,CALLAO,CALLAO,PERU,-77.13057784,-11.88211968
,,prolongacion,,PROLONGACIÓN NEPTUNO PUNTO 8,,,,,CALLAO,CALLAO,PERU,-77.12913038,-11.88215435
,,prolongacion,,PROLONGACIÓN NEPTUNO PUNTO 9,,,,,CALLAO,CALLAO,PERU,-77.1267555,-11.88211102
,,avenida,,AV VENUS PUNTO 1,,,,,CALLAO,CALLAO,PERU,-77.12978044,-11.88247505
,,avenida,,AV VENUS PUNTO 2,,,,,CALLAO,CALLAO,PERU,-77.1296851,-11.88356281
,,avenida,,AV VENUS PUNTO 3,,,,,CALLAO,CALLAO,PERU,-77.1297241,-11.88436021
,,avenida,,AV VENUS PUNTO 4,,,,,CALLAO,CALLAO,PERU,-77.12968943,-11.8849236
,,avenida,,AV VENUS PUNTO 5,,,,,CALLAO,CALLAO,PERU,-77.12966343,-11.88563866
,,avenida,,AV VENUS PUNTO 6,,,,,CALLAO,CALLAO,PERU,-77.12955075,-11.88709912
,,avenida,,AV MERCURIO PUNTO 1,,,,,CALLAO,CALLAO,PERU,-77.13003179,-11.88811754
,,avenida,,AV MERCURIO PUNTO 2,,,,,CALLAO,CALLAO,PERU,-77.12935573,-11.88804821
,,avenida,,AV MERCURIO PUNTO 3,,,,,CALLAO,CALLAO,PERU,-77.12879668,-11.88803087
,,avenida,,AV MERCURIO PUNTO 4,,,,,CALLAO,CALLAO,PERU,-77.1282073,-11.88798753
,,avenida,,AV MERCURIO PUNTO 5,,,,,CALLAO,CALLAO,PERU,-77.12774793,-11.8879702
,,avenida,,AV MERCURIO PUNTO 6,,,,,CALLAO,CALLAO,PERU,-77.12727122,-11.88793986
,,avenida,,AV MERCURIO PUNTO 7,,,,,CALLAO,CALLAO,PERU,-77.12685518,-11.88795286
,,avenida,,AV MERCURIO PUNTO 8,,,,,CALLAO,CALLAO,PERU,-77.12646515,-11.8879832
,,avenida,,AV MERCURIO PUNTO 9,,,,,CALLAO,CALLAO,PERU,-77.12874035,-11.89875681
,,avenida,,AV MERCURIO PUNTO 10,,,,,CALLAO,CALLAO,PERU,-77.12829831,-11.89759104
,,avenida,,AV MERCURIO PUNTO 11,,,,,CALLAO,CALLAO,PERU,-77.12810329,-11.89654662
,,avenida,,AV MERCURIO PUNTO 12,,,,,CALLAO,CALLAO,PERU,-77.12794294,-11.89539385
,,avenida,,AV MERCURIO PUNTO 13,,,,,CALLAO,CALLAO,PERU,-77.1277956,-11.89428442
,,avenida,,AV MERCURIO PUNTO 14,,,,,CALLAO,CALLAO,PERU,-77.12766992,-11.89341768
,,avenida,,AV MERCURIO PUNTO 15,,,,,CALLAO,CALLAO,PERU,-77.12768292,-11.89272862
,,avenida,,AV MERCURIO PUNTO 16,,,,,CALLAO,CALLAO,PERU,-77.12789094,-11.89232558
,,avenida,,AV MERCURIO PUNTO 17,,,,,CALLAO,CALLAO,PERU,-77.12823763,-11.89180987
,,avenida,,AV MERCURIO PUNTO 18,,,,,CALLAO,CALLAO,PERU,-77.12863634,-11.89115981
,,avenida,,AV MERCURIO PUNTO 19,,,,,CALLAO,CALLAO,PERU,-77.12878802,-11.89085645
,,avenida,,AV MERCURIO PUNTO 20,,,,,CALLAO,CALLAO,PERU,-77.1296851,-11.88977302
,,avenida,,AV MERCURIO PUNTO 21,,,,,CALLAO,CALLAO,PERU,-77.13007513,-11.88865059
,,avenida,,AV MIGUEL GRAU PUNTO 1,,,,,CALLAO,CALLAO,PERU,-77.13059518,-11.88773184
,,avenida,,AV MIGUEL GRAU PUNTO 2,,,,,CALLAO,CALLAO,PERU,-77.13066885,-11.88731147
,,avenida,,AV MIGUEL GRAU PUNTO 3,,,,,CALLAO,CALLAO,PERU,-77.13064285,-11.88683477
,,avenida,,AV MIGUEL GRAU PUNTO 4,,,,,CALLAO,CALLAO,PERU,-77.13058217,-11.88627572
,,avenida,,AV MIGUEL GRAU PUNTO 5,,,,,CALLAO,CALLAO,PERU,-77.13069918,-11.88553032
,,avenida,,AV MIGUEL GRAU PUNTO 6,,,,,CALLAO,CALLAO,PERU,-77.13066885,-11.88483259
,,avenida,,AV KUMAMOTO PUNTO 1,,,,,CALLAO,CALLAO,PERU,-77.13102855,-11.88578601
,,avenida,,AV KUMAMOTO PUNTO 2,,,,,CALLAO,CALLAO,PERU,-77.13108055,-11.88495393
,,avenida,,AV KUMAMOTO PUNTO 3,,,,,CALLAO,CALLAO,PERU,-77.13114989,-11.88436455
,,avenida,,AV KUMAMOTO PUNTO 4,,,,,CALLAO,CALLAO,PERU,-77.13114122,-11.88373183
,,avenida,,AV KUMAMOTO PUNTO 5,,,,,CALLAO,CALLAO,PERU,-77.13115856,-11.88263973
,,avenida,,AV KUMAMOTO PUNTO 6,,,,,CALLAO,CALLAO,PERU,-77.13117589,-11.88188566
,,avenida,,AV KUMAMOTO PUNTO 7,,,,,CALLAO,CALLAO,PERU,-77.1312019,-11.88128761
,,avenida,,AV KUMAMOTO PUNTO 8,,,,,CALLAO,CALLAO,PERU,-77.13131457,-11.87964947
,,carretera,,CARRETERA NESTOR GAMBETTA PUNTO 1,,,,,CALLAO,CALLAO,PERU,-77.1263568,-11.87743927
,,carretera,,CARRETERA NESTOR GAMBETTA PUNTO 2,,,,,CALLAO,CALLAO,PERU,-77.12644348,-11.87579246
,,carretera,,CARRETERA NESTOR GAMBETTA PUNTO 3,,,,,CALLAO,CALLAO,PERU,-77.12677284,-11.87450968
,,carretera,,CARRETERA NESTOR GAMBETTA PUNTO 4,,,,,CALLAO,CALLAO,PERU,-77.12708487,-11.87260285
,,carretera,,CARRETERA NESTOR GAMBETTA PUNTO 5,,,,,CALLAO,CALLAO,PERU,-77.12731022,-11.87097337
,,carretera,,CARRETERA NESTOR GAMBETTA PUNTO 6,,,,,CALLAO,CALLAO,PERU,-77.12737956,-11.87012396
,,carretera,,CARRETERA NESTOR GAMBETTA PUNTO 7,,,,,CALLAO,CALLAO,PERU,-77.1278476,-11.86871984
,,carretera,,CARRETERA NESTOR GAMBETTA PUNTO 8,,,,,CALLAO,CALLAO,PERU,-77.12800361,-11.86762774
,,carretera,,CARRETERA NESTOR GAMBETTA PUNTO 9,,,,,CALLAO,CALLAO,PERU,-77.12822897,-11.86577292
,,carretera,,CARRETERA NESTOR GAMBETTA PUNTO 10,,,,,CALLAO,CALLAO,PERU,-77.12852366,-11.8640741
,,carretera,,CARRETERA NESTOR GAMBETTA PUNTO 11,,,,,CALLAO,CALLAO,PERU,-77.12885302,-11.862982
,,carretera,,CARRETERA NESTOR GAMBETTA PUNTO 12,,,,,CALLAO,CALLAO,PERU,-77.12965043,-11.86076314
,,carretera,,CARRETERA NESTOR GAMBETTA PUNTO 13,,,,,CALLAO,CALLAO,PERU,-77.13023981,-11.85906433
,,carretera,,CARRETERA NESTOR GAMBETTA PUNTO 14,,,,,CALLAO,CALLAO,PERU,-77.13003179,-11.8576602
,,carretera,,CARRETERA NESTOR GAMBETTA PUNTO 15,,,,,CALLAO,CALLAO,PERU,-77.12987578,-11.85618674
,,carretera,,CARRETERA NESTOR GAMBETTA PUNTO 16,,,,,CALLAO,CALLAO,PERU,-77.12958109,-11.85471328
,,carretera,,CARRETERA NESTOR GAMBETTA PUNTO 17,,,,,CALLAO,CALLAO,PERU,-77.12926906,-11.85278911
,,carretera,,CARRETERA NESTOR GAMBETTA PUNTO 18,,,,,CALLAO,CALLAO,PERU,-77.12838498,-11.85178369
,,carretera,,CARRETERA NESTOR GAMBETTA PUNTO 19,,,,,CALLAO,CALLAO,PERU,-77.12755291,-11.85069159
,,carretera,,CARRETERA NESTOR GAMBETTA PUNTO 20,,,,,CALLAO,CALLAO,PERU,-77.12663416,-11.85017154
,,carretera,,CARRETERA NESTOR GAMBETTA PUNTO 21,,,,,CALLAO,CALLAO,PERU,-77.12557673,-11.84982485
,,carretera,,CARRETERA NESTOR GAMBETTA PUNTO 22,,,,,CALLAO,CALLAO,PERU,-77.12425929,-11.84984218
,,carretera,,CARRETERA NESTOR GAMBETTA PUNTO 23,,,,,CALLAO,CALLAO,PERU,-77.12308052,-11.84985952
,,carretera,,CARRETERA NESTOR GAMBETTA PUNTO 24,,,,,CALLAO,CALLAO,PERU,-77.12179774,-11.84937414
,,carretera,,CARRETERA NESTOR GAMBETTA PUNTO 25,,,,,CALLAO,CALLAO,PERU,-77.1205843,-11.84902744
,,carretera,,CARRETERA NESTOR GAMBETTA PUNTO 26,,,,,CALLAO,CALLAO,PERU,-77.11959621,-11.84828205
,,carretera,,CARRETERA NESTOR GAMBETTA PUNTO 27,,,,,CALLAO,CALLAO,PERU,-77.11907616,-11.84720728
,,carretera,,CARRETERA NESTOR GAMBETTA PUNTO 28,,,,,CALLAO,CALLAO,PERU,-77.11866013,-11.84609785
,,carretera,,CARRETERA NESTOR GAMBETTA PUNTO 29,,,,,CALLAO,CALLAO,PERU,-77.11807074,-11.84524845
,,carretera,,CARRETERA NESTOR GAMBETTA PUNTO 30,,,,,CALLAO,CALLAO,PERU,-77.11744669,-11.8443817
,,carretera,,CARRETERA NESTOR GAMBETTA PUNTO 31,,,,,CALLAO,CALLAO,PERU,-77.11657994,-11.84356696
,,carretera,,CARRETERA NESTOR GAMBETTA PUNTO 32,,,,,CALLAO,CALLAO,PERU,-77.11560919,-11.84235352
,,avenida,,AVENIDA 2000 PUNTO 1,,,,,CALLAO,CALLAO,PERU,-77.12427662,-11.84406968
,,avenida,,AVENIDA 2000 PUNTO 2,,,,,CALLAO,CALLAO,PERU,-77.12436329,-11.84479774
,,avenida,,AVENIDA 2000 PUNTO 3,,,,,CALLAO,CALLAO,PERU,-77.1244153,-11.84542179
,,avenida,,AVENIDA 2000 PUNTO 4,,,,,CALLAO,CALLAO,PERU,-77.12453664,-11.84602851
,,avenida,,AVENIDA 2000 PUNTO 5,,,,,CALLAO,CALLAO,PERU,-77.12524737,-11.84691259
,,avenida,,AVENIDA 2000 PUNTO 6,,,,,CALLAO,CALLAO,PERU,-77.12604478,-11.84727662
,,avenida,,AVENIDA 2000 PUNTO 7,,,,,CALLAO,CALLAO,PERU,-77.12777826,-11.84821271
,,avenida,,AVENIDA 2000 PUNTO 8,,,,,CALLAO,CALLAO,PERU,-77.1282463,-11.84864608
,,avenida,,AVENIDA 2000 PUNTO 9,,,,,CALLAO,CALLAO,PERU,-77.12900904,-11.84897544
,,avenida,,AVENIDA 2000 PUNTO 10,,,,,CALLAO,CALLAO,PERU,-77.13032648,-11.84979018
,,avenida,,AVENIDA 2000 PUNTO 11,,,,,CALLAO,CALLAO,PERU,-77.13185195,-11.85067426
,,avenida,,AVENIDA 2000 PUNTO 12,,,,,CALLAO,CALLAO,PERU,-77.13578696,-11.85098628
,,avenida,,AVENIDA 2000 PUNTO 13,,,,,CALLAO,CALLAO,PERU,-77.13648036,-11.85018888
,,avenida,,AVENIDA 2000 PUNTO 14,,,,,CALLAO,CALLAO,PERU,-77.13680972,-11.84954749
,,avenida,,AVENIDA 2000 PUNTO 15,,,,,CALLAO,CALLAO,PERU,-77.13713908,-11.84911412
,,avenida,,AVENIDA 2000 PUNTO 16,,,,,CALLAO,CALLAO,PERU,-77.13732977,-11.84876742
,,avenida,,AVENIDA 2000 PUNTO 17,,,,,CALLAO,CALLAO,PERU,-77.13790182,-11.84793535
,,avenida,,AVENIDA 2000 PUNTO 18,,,,,CALLAO,CALLAO,PERU,-77.13826585,-11.84738063
,,avenida,,AVENIDA 2000 PUNTO 19,,,,,CALLAO,CALLAO,PERU,-77.13876856,-11.84639255
,,avenida,,AVENIDA 2000 PUNTO 20,,,,,CALLAO,CALLAO,PERU,-77.13908059,-11.84573382
,,avenida,,AVENIDA 2000 PUNTO 21,,,,,CALLAO,CALLAO,PERU,-77.13947929,-11.84517911
,,avenida,,AVENIDA 2000 PUNTO 22,,,,,CALLAO,CALLAO,PERU,-77.13977398,-11.84474573
,,avenida,,AVENIDA 2000 PUNTO 23,,,,,CALLAO,CALLAO,PERU,-77.139982,-11.84405234
,,avenida,,AVENIDA 2000 PUNTO 24,,,,,CALLAO,CALLAO,PERU,-77.14060605,-11.84335895
,,avenida,,AVENIDA 2000 PUNTO 25,,,,,CALLAO,CALLAO,PERU,-77.1411781,-11.84257888
,,avenida,,AVENIDA 2000 PUNTO 26,,,,,CALLAO,CALLAO,PERU,-77.14164615,-11.84167747
,,avenida,,AVENIDA 2000 PUNTO 27,,,,,CALLAO,CALLAO,PERU,-77.14194084,-11.84117475
,,avenida,,AVENIDA 2000 PUNTO 28,,,,,CALLAO,CALLAO,PERU,-77.14228754,-11.84042936
,,avenida,,AVENIDA 2000 PUNTO 29,,,,,CALLAO,CALLAO,PERU,-77.14324095,-11.83912057
,,avenida,,AVENIDA 2000 PUNTO 30,,,,,CALLAO,CALLAO,PERU,-77.14364832,-11.83842718
,,avenida,,AVENIDA 2000 PUNTO 31,,,,,CALLAO,CALLAO,PERU,-77.14438505,-11.83716174
,,avenida,,AVENIDA 2000 PUNTO 32,,,,,CALLAO,CALLAO,PERU,-77.1468596,-11.83601763
,,avenida,,AV LOS ARQUITECTOS PUNTO 1,,,,,CALLAO,CALLAO,PERU,-77.13864288,-11.83727441
,,avenida,,AV LOS ARQUITECTOS PUNTO 2,,,,,CALLAO,CALLAO,PERU,-77.13829618,-11.83579228
,,avenida,,AV LOS ARQUITECTOS PUNTO 3,,,,,CALLAO,CALLAO,PERU,-77.13811417,-11.8348302
,,avenida,,AV LOS ARQUITECTOS PUNTO 4,,,,,CALLAO,CALLAO,PERU,-77.13780214,-11.83406746
,,avenida,,AV LOS ARQUITECTOS PUNTO 5,,,,,CALLAO,CALLAO,PERU,-77.1377588,-11.83369476
,,avenida,,AV LOS ARQUITECTOS PUNTO 6,,,,,CALLAO,CALLAO,PERU,-77.13760279,-11.83316605
,,avenida,,AV LOS ARQUITECTOS PUNTO 7,,,,,CALLAO,CALLAO,PERU,-77.1377068,-11.83279335
,,avenida,,AV LOS ARQUITECTOS PUNTO 8,,,,,CALLAO,CALLAO,PERU,-77.13762879,-11.83232531
,,avenida,,AV LOS ARQUITECTOS PUNTO 9,,,,,CALLAO,CALLAO,PERU,-77.1376548,-11.83199595
,,avenida,,AV LOS ARQUITECTOS PUNTO 10,,,,,CALLAO,CALLAO,PERU,-77.13756812,-11.83151924
,,avenida,,AV LOS ARQUITECTOS PUNTO 11,,,,,CALLAO,CALLAO,PERU,-77.13754212,-11.83114654
,,avenida,,AV LOS ARQUITECTOS PUNTO 12,,,,,CALLAO,CALLAO,PERU,-77.13754212,-11.83066116
,,avenida,,AV LOS ARQUITECTOS PUNTO 13,,,,,CALLAO,CALLAO,PERU,-77.13757679,-11.83028846
,,avenida,,AV LOS ARQUITECTOS PUNTO 14,,,,,CALLAO,CALLAO,PERU,-77.13757679,-11.83001977
,,avenida,,AV LOS ARQUITECTOS PUNTO 15,,,,,CALLAO,CALLAO,PERU,-77.13760279,-11.82961241
,,avenida,,AV LOS ARQUITECTOS PUNTO 16,,,,,CALLAO,CALLAO,PERU,-77.13764613,-11.82925704
,,avenida,,AV LOS ARQUITECTOS PUNTO 17,,,,,CALLAO,CALLAO,PERU,-77.1376548,-11.82883234
,,avenida,,AV LOS ARQUITECTOS PUNTO 18,,,,,CALLAO,CALLAO,PERU,-77.13767213,-11.82843364
,,avenida,,AV LOS ARQUITECTOS PUNTO 19,,,,,CALLAO,CALLAO,PERU,-77.1377328,-11.82798293
,,avenida,,AV LOS ARQUITECTOS PUNTO 20,,,,,CALLAO,CALLAO,PERU,-77.1377328,-11.82773157
,,avenida,,AV LOS ARQUITECTOS PUNTO 21,,,,,CALLAO,CALLAO,PERU,-77.13779347,-11.82720286
,,avenida,,AV LOS ARQUITECTOS PUNTO 22,,,,,CALLAO,CALLAO,PERU,-77.13784548,-11.8268735
,,avenida,,AV LOS ARQUITECTOS PUNTO 23,,,,,CALLAO,CALLAO,PERU,-77.13783681,-11.82654414
,,avenida,,AV LOS ARQUITECTOS PUNTO 24,,,,,CALLAO,CALLAO,PERU,-77.13786281,-11.82617144
,,avenida,,AV LOS ARQUITECTOS PUNTO 25,,,,,CALLAO,CALLAO,PERU,-77.13787148,-11.8257294
,,avenida,,AV LOS ARQUITECTOS PUNTO 26,,,,,CALLAO,CALLAO,PERU,-77.13788882,-11.82520068
,,avenida,,AV LOS ARQUITECTOS PUNTO 27,,,,,CALLAO,CALLAO,PERU,-77.13788882,-11.82471531
,,avenida,,AV LOS ARQUITECTOS PUNTO 28,,,,,CALLAO,CALLAO,PERU,-77.13788882,-11.82432527
,,avenida,,AV LOS ARQUITECTOS PUNTO 29,,,,,CALLAO,CALLAO,PERU,-77.13789748,-11.82379656
,,avenida,,AV LOS ARQUITECTOS PUNTO 30,,,,,CALLAO,CALLAO,PERU,-77.13788015,-11.82247911
,,avenida,,AV LOS ARQUITECTOS PUNTO 31,,,,,CALLAO,CALLAO,PERU,-77.13799283,-11.82109232
,,avenida,,AV LOS ARQUITECTOS PUNTO 32,,,,,CALLAO,CALLAO,PERU,-77.13801883,-11.82068495
,,avenida,,AV LOS ARQUITECTOS PUNTO 33,,,,,CALLAO,CALLAO,PERU,-77.13811417,-11.82028625
,,avenida,,AV LOS ARQUITECTOS PUNTO 34,,,,,CALLAO,CALLAO,PERU,-77.13812284,-11.8197142
,,avenida,,AV LOS ARQUITECTOS PUNTO 35,,,,,CALLAO,CALLAO,PERU,-77.13818351,-11.81921149
,,avenida,,AV LOS ARQUITECTOS PUNTO 36,,,,,CALLAO,CALLAO,PERU,-77.13820951,-11.81875212
,,avenida,,AV DE LA CHALACA PUNTO 1,,,,,CALLAO,CALLAO,PERU,-77.09952678,-12.04534902
,,avenida,,AV DE LA CHALACA PUNTO 2,,,,,CALLAO,CALLAO,PERU,-77.10042819,-12.04540103
,,avenida,,AV DE LA CHALACA PUNTO 3,,,,,CALLAO,CALLAO,PERU,-77.10139894,-12.04537502
,,avenida,,AV DE LA CHALACA PUNTO 4,,,,,CALLAO,CALLAO,PERU,-77.10228302,-12.04545303
,,avenida,,AV DE LA CHALACA PUNTO 5,,,,,CALLAO,CALLAO,PERU,-77.10302842,-12.04554837
,,avenida,,AV DE LA CHALACA PUNTO 6,,,,,CALLAO,CALLAO,PERU,-77.10383449,-12.04557438
,,avenida,,AV DE LA CHALACA PUNTO 7,,,,,CALLAO,CALLAO,PERU,-77.10443254,-12.04555704
,,avenida,,AV DE LA CHALACA PUNTO 8,,,,,CALLAO,CALLAO,PERU,-77.10541196,-12.04560905
,,avenida,,AV DE LA CHALACA PUNTO 9,,,,,CALLAO,CALLAO,PERU,-77.10607936,-12.04571305
,,avenida,,AV DE LA CHALACA PUNTO 10,,,,,CALLAO,CALLAO,PERU,-77.10719745,-12.04573906
